Country,ProvinceName,PostalCode,PostalArea
South Africa,Gauteng,0001,Pretoria
South Africa,Gauteng,0002,Pretoria
South Africa,Gauteng,0003,Pretoria
South Africa,Gauteng,0004,Pretoria
South Africa,Gauteng,0005,Pretoria
South Africa,Gauteng,0006,Pretoria
South Africa,Gauteng,0007,Pretoria
South Africa,Gauteng,0008,Atteridgeville
South Africa,Gauteng,0009,Pretoria
South Africa,Gauteng,0010,Glenstantia
South Africa,Gauteng,0011,Pretoria
South Africa,Gauteng,0012,Pretoria
South Africa,Gauteng,0014,Centurion
South Africa,Gauteng,0016,Pretoria
South Africa,Gauteng,0017,Doornpoort
South Africa,Gauteng,0018,Pretoria
South Africa,Gauteng,0019,Pretoria
South Africa,Gauteng,0020,Pretoria
South Africa,Gauteng,0021,Pretoria
South Africa,Gauteng,0022,Eersterus
South Africa,Gauteng,0023,Pretoria
South Africa,Gauteng,0024,Pretoria
South Africa,Gauteng,0025,Pretoria
South Africa,Gauteng,0026,Pretoria
South Africa,Gauteng,0027,Pretoria
South Africa,Gauteng,0028,Pretoria
South Africa,Gauteng,0029,Philip nel park
South Africa,Gauteng,0030,Pretoria
South Africa,Gauteng,0031,Pretoria
South Africa,Gauteng,0032,Pretoria
South Africa,Gauteng,0033,Pretoria
South Africa,Gauteng,0035,Derdepoortpark
South Africa,Gauteng,0036,Pretoria
South Africa,Gauteng,0037,Laudium
South Africa,Gauteng,0039,Pretoria
South Africa,Gauteng,0040,Menlo park
South Africa,Gauteng,0041,Pretoria
South Africa,Gauteng,0042,Garsfontein
South Africa,Gauteng,0043,Faerie glen
South Africa,Gauteng,0044,Moreletapark
South Africa,Gauteng,0045,Pretoria
South Africa,Gauteng,0046,Centurion
South Africa,Gauteng,0047,Pretoria
South Africa,Gauteng,0048,Pretoria
South Africa,Gauteng,0049,Pretoria
South Africa,Gauteng,0050,Pretoria
South Africa,Gauteng,0051,Centurion
South Africa,Gauteng,0052,Pretoria
South Africa,Gauteng,0053,Pretoria
South Africa,Gauteng,0054,Pretoria
South Africa,Gauteng,0055,Pretoria
South Africa,Gauteng,0056,Pretoria
South Africa,Gauteng,0057,Pretoria
South Africa,Gauteng,0058,Pretoria
South Africa,Gauteng,0059,Pretoria
South Africa,Gauteng,0060,Menlo park
South Africa,Gauteng,0061,Pretoria
South Africa,Gauteng,0062,Pretoria
South Africa,Gauteng,0063,Pretoria
South Africa,Gauteng,0064,Mahube valley
South Africa,Gauteng,0065,Pretoria
South Africa,Gauteng,0066,Pretoria north
South Africa,Gauteng,0067,Highveld park
South Africa,Gauteng,0068,Hercules
South Africa,Gauteng,0070,Pretoria west
South Africa,Gauteng,0071,Pretoria
South Africa,Gauteng,0072,Moreletapark
South Africa,Gauteng,0073,Pretoria
South Africa,Gauteng,0074,Pretoria
South Africa,Gauteng,0075,Brooklyn square
South Africa,Gauteng,0076,Kromdraai
South Africa,Gauteng,0077,Menlyn central
South Africa,Gauteng,0078,Pretoria
South Africa,Gauteng,0079,Pretoria
South Africa,Gauteng,0080,Pretoria
South Africa,Gauteng,0081,Faerie glen
South Africa,Gauteng,0082,Hercules
South Africa,Gauteng,0083,Hatfield
South Africa,Gauteng,0084,Moot
South Africa,Gauteng,0087,Undetermined
South Africa,Gauteng,0090,Undetermined
South Africa,Gauteng,0094,Undetermined
South Africa,Gauteng,0100,Undetermined
South Africa,Gauteng,0101,Pretoria
South Africa,Gauteng,0102,Menlo park
South Africa,Gauteng,0103,Pretoria
South Africa,Gauteng,0104,Undetermined
South Africa,Gauteng,0105,Pretoria
South Africa,Gauteng,0109,Wierdapark
South Africa,Gauteng,0110,Pretoria
South Africa,Gauteng,0112,Mamelodi
South Africa,Gauteng,0116,Pretoria
South Africa,Gauteng,0117,Pretoria
South Africa,Gauteng,0118,Karenpark
South Africa,Gauteng,0120,Pretoria
South Africa,Gauteng,0121,Pretoria
South Africa,Gauteng,0122,Mahube valley
South Africa,Gauteng,0125,Pretoria
South Africa,Gauteng,0126,Pretoria
South Africa,Gauteng,0127,Pretoria
South Africa,Gauteng,0128,Pretoria
South Africa,Gauteng,0129,Pretoria
South Africa,Gauteng,0132,Pretoria
South Africa,Gauteng,0134,Pretoria
South Africa,Gauteng,0135,Pretoria
South Africa,Gauteng,0137,Pretoria
South Africa,Gauteng,0139,Pretoria
South Africa,Gauteng,0140,Lyttelton
South Africa,Gauteng,0142,Pretoria
South Africa,Gauteng,0143,Pretoria
South Africa,Gauteng,0145,Pretoria
South Africa,Gauteng,0146,Pretoria
South Africa,Gauteng,0148,Pretoria
South Africa,Gauteng,0149,Centurion
South Africa,Gauteng,0150,Magalieskruin
South Africa,Gauteng,0151,Pretoria
South Africa,Gauteng,0152,Pretoria
South Africa,Gauteng,0153,Pretoria
South Africa,Gauteng,0154,Pretoria
South Africa,Gauteng,0155,Pretoria
South Africa,Gauteng,0156,Ninapark
South Africa,Gauteng,0157,Centurion
South Africa,Gauteng,0158,Pretoria
South Africa,Gauteng,0159,Montanapark
South Africa,Gauteng,0160,Denneboom
South Africa,Gauteng,0161,Pretoria
South Africa,Gauteng,0162,Pretoria
South Africa,Gauteng,0163,Centurion
South Africa,Gauteng,0164,Itsoseng
South Africa,Gauteng,0165,Pretoria
South Africa,Gauteng,0166,Pretoria
South Africa,Gauteng,0167,Pretoria
South Africa,Gauteng,0168,Pretoria
South Africa,Gauteng,0169,Highveld
South Africa,Gauteng,0170,Silverton
South Africa,Gauteng,0171,Centurion
South Africa,Gauteng,0172,Centurion
South Africa,Gauteng,0173,Wierdapark
South Africa,Gauteng,0174,Pretoria
South Africa,Gauteng,0175,Olievenhoutbosch
South Africa,Gauteng,0176,Lyttelton south
South Africa,Gauteng,0177,Mamelodi
South Africa,Gauteng,0178,Cornwall hill
South Africa,Gauteng,0179,Pretoria
South Africa,Gauteng,0181,Brooklyn square
South Africa,Gauteng,0182,Boordfontein
South Africa,Gauteng,0183,Philip nel park
South Africa,Gauteng,0184,Equestria
South Africa,Gauteng,0185,Pretoria
South Africa,Gauteng,0186,Doornpoort
South Africa,Gauteng,0187,Olievenhoutbosch
South Africa,Gauteng,0188,Pretoria
South Africa,Gauteng,0189,Brits
South Africa,Gauteng,0190,Mabopane
South Africa,Gauteng,0191,Mabopane
South Africa,Gauteng,0192,Mabopane
South Africa,Gauteng,0193,Mabopane
South Africa,Gauteng,0194,Mabopane
South Africa,Gauteng,0195,Mogwase
South Africa,Gauteng,0196,Morula
South Africa,Gauteng,0197,Mabopane
South Africa,Gauteng,0198,Mabopane
South Africa,Gauteng,0199,Mabopane
South Africa,Gauteng,0200,Pretoria
South Africa,Gauteng,0201,Boordfontein
South Africa,Gauteng,0202,Rustenburg
South Africa,Gauteng,0203,Moiletswane
South Africa,Gauteng,0204,Medunsa
South Africa,Gauteng,0205,Odinburg
South Africa,Gauteng,0206,Kelebogile
South Africa,Gauteng,0207,Mabopane
South Africa,Gauteng,0208,Ga-rankuwa
South Africa,Gauteng,0209,Ga-rankuwa north
South Africa,Gauteng,0210,Brits
South Africa,Gauteng,0211,Mabopane
South Africa,Gauteng,0212,Mabopane
South Africa,Gauteng,0213,Mabopane
South Africa,Gauteng,0214,Mabopane
South Africa,Gauteng,0215,Mabopane
South Africa,North West,0216,Hartbeespoort
South Africa,North West,0217,Brits
South Africa,Gauteng,0218,Mabopane
South Africa,Gauteng,0219,Mabopane
South Africa,North West,0220,Brits
South Africa,Gauteng,0221,Ga-rankuwa
South Africa,North West,0232,Brits
South Africa,North West,0240,Brits
South Africa,North West,0250,Brits
South Africa,North West,0251,Brits
South Africa,North West,0252,Brits
South Africa,North West,0253,Brits
South Africa,North West,0255,Brits
South Africa,North West,0257,Brits
South Africa,North West,0258,Brits
South Africa,North West,0259,Brits
South Africa,North West,0260,Brits
South Africa,North West,0261,Brits
South Africa,North West,0263,Lethabong
South Africa,North West,0264,Brits
South Africa,North West,0265,Brits
South Africa,North West,0266,Rabokala
South Africa,North West,0267,Brits
South Africa,North West,0268,Brits
South Africa,North West,0269,Brits
South Africa,North West,0270,Brits
South Africa,North West,0271,Brits
South Africa,North West,0273,Brits
South Africa,North West,0274,Brits
South Africa,North West,0275,Brits
South Africa,North West,0276,Brits
South Africa,North West,0277,Brits
South Africa,North West,0280,Undetermined
South Africa,North West,0284,Marikana
South Africa,North West,0285,Marikana
South Africa,North West,0286,Marikana
South Africa,North West,0319,Thabazimbi
South Africa,North West,0357,Mafikeng
South Africa,North West,0361,Thabazimbi
South Africa,North West,0363,Thabazimbi
South Africa,North West,0380,Thabazimbi
South Africa,North West,0381,Thabazimbi
South Africa,North West,0382,Thabazimbi
South Africa,North West,0383,Thabazimbi
South Africa,North West,0384,Thabazimbi
South Africa,North West,0385,Thabazimbi
South Africa,Gauteng,0400,Hammanskraal
South Africa,Gauteng,0401,Eersterus
South Africa,Gauteng,0402,Hammanskraal
South Africa,Gauteng,0403,Lefatlheng
South Africa,Gauteng,0404,Hammanskraal
South Africa,Mpumalanga,0405,Rust de winter
South Africa,Limpopo,0406,Warmbaths
South Africa,Gauteng,0407,Hammanskraal
South Africa,Gauteng,0408,Temba
South Africa,Gauteng,0409,Temba
South Africa,Gauteng,0410,Temba
South Africa,Gauteng,0411,Temba
South Africa,Gauteng,0412,Mphe-batho
South Africa,Gauteng,0413,Hammanskraal
South Africa,Gauteng,0414,Hammanskraal
South Africa,Gauteng,0415,Rantebeng
South Africa,Gauteng,0416,Temba
South Africa,Gauteng,0417,Hammanskraal
South Africa,Gauteng,0418,Swartbooistad
South Africa,Gauteng,0419,Temba
South Africa,Limpopo,0420,Warmbaths
South Africa,Gauteng,0421,Carousel view
South Africa,Gauteng,0422,Mogogelo
South Africa,Gauteng,0423,Leboalangwe
South Africa,Gauteng,0424,Dilopye
South Africa,Gauteng,0425,Sekampaneng
South Africa,Gauteng,0426,Hammanskraal
South Africa,Gauteng,0427,Hammanskraal
South Africa,Gauteng,0428,Temba
South Africa,Gauteng,0429,Hammanskraal
South Africa,Gauteng,0430,Settlers
South Africa,Gauteng,0431,Hammanskraal
South Africa,Gauteng,0432,Bamokgoko
South Africa,Limpopo,0433,Nylstroom
South Africa,Gauteng,0434,Hammanskraal
South Africa,Gauteng,0435,Hammanskraal
South Africa,Limpopo,0436,Nylstroom
South Africa,Limpopo,0437,Nylstroom
South Africa,Gauteng,0438,Temba
South Africa,Gauteng,0439,Temba
South Africa,Gauteng,0440,Temba
South Africa,Gauteng,0441,Temba
South Africa,Gauteng,0442,Temba
South Africa,Gauteng,0443,Temba
South Africa,Gauteng,0444,Temba
South Africa,Gauteng,0445,Temba
South Africa,Gauteng,0447,Temba
South Africa,Gauteng,0448,Temba
South Africa,Limpopo,0449,Marble hall
South Africa,Limpopo,0450,Marble hall
South Africa,Limpopo,0451,Marble hall
South Africa,Limpopo,0452,Marble hall
South Africa,Limpopo,0453,Marble hall
South Africa,Limpopo,0454,Marble hall
South Africa,Limpopo,0455,Marble hall
South Africa,Limpopo,0456,Marble hall
South Africa,Mpumalanga,0457,Marble hall
South Africa,Mpumalanga,0458,Marble hall
South Africa,Mpumalanga,0459,Marble hall
South Africa,Mpumalanga,0460,Marble hall
South Africa,Mpumalanga,0461,Undetermined
South Africa,Mpumalanga,0462,Siyabuswa
South Africa,Limpopo,0464,Marble hall
South Africa,Limpopo,0465,Marble hall
South Africa,Limpopo,0466,Marble hall
South Africa,Limpopo,0467,Marble hall
South Africa,Limpopo,0468,Marble hall
South Africa,Mpumalanga,0469,Siyabuswa
South Africa,Mpumalanga,0470,Groblersdal
South Africa,Limpopo,0472,Marble hall
South Africa,Mpumalanga,0473,Groblersdal
South Africa,Mpumalanga,0474,Groblersdal
South Africa,Mpumalanga,0475,Siyabuswa
South Africa,Mpumalanga,0476,Dichoeung
South Africa,Mpumalanga,0477,Groblersdal
South Africa,Limpopo,0478,Marble hall
South Africa,Limpopo,0479,Marble hall
South Africa,Limpopo,0480,Northern provice
South Africa,Limpopo,0481,Belabela
South Africa,Limpopo,0482,Warmbad
South Africa,Limpopo,0483,Warmbaths
South Africa,Limpopo,0484,Marble hall
South Africa,Mpumalanga,0485,Groblersdal
South Africa,Limpopo,0486,Leeupoort
South Africa,North West,0487,Thabazimbi
South Africa,Mpumalanga,0488,Babethu
South Africa,Limpopo,0489,Makekeng
South Africa,Mpumalanga,0490,Groblersdal
South Africa,Mpumalanga,0491,Groblersdal
South Africa,Limpopo,0492,Warmbaths
South Africa,Mpumalanga,0493,Siyabuswa
South Africa,Mpumalanga,0494,Siyabuswa
South Africa,Mpumalanga,0495,Siyabuswa
South Africa,Mpumalanga,0496,Moripe
South Africa,Mpumalanga,0497,Lerome
South Africa,Gauteng,0498,Temba
South Africa,Gauteng,0499,Temba
South Africa,North West,0500,Thabazimbi
South Africa,Gauteng,0501,Temba
South Africa,Gauteng,0502,Temba
South Africa,Gauteng,0503,Temba
South Africa,Gauteng,0504,Temba
South Africa,Gauteng,0505,Temba
South Africa,Gauteng,0506,Temba
South Africa,Gauteng,0507,Temba
South Africa,Gauteng,0508,Temba
South Africa,Limpopo,0510,Nylstroom
South Africa,Limpopo,0512,Nylstroom
South Africa,Limpopo,0513,Nylstroom
South Africa,Limpopo,0514,Nylstroom
South Africa,Limpopo,0515,Nylstroom
South Africa,Limpopo,0516,Nylstroom
South Africa,Limpopo,0517,Nylstroom
South Africa,Limpopo,0530,Vaalwater
South Africa,Limpopo,0537,Vaalwater
South Africa,Limpopo,0539,Nylstroom
South Africa,Limpopo,0541,Potgietersrus
South Africa,Limpopo,0548,Undetermined
South Africa,Limpopo,0560,Mookgophong
South Africa,Limpopo,0561,Naboomspruit
South Africa,Limpopo,0562,Naboomspruit
South Africa,Limpopo,0564,Naboomspruit
South Africa,Limpopo,0580,Naboomspruit
South Africa,Limpopo,0600,Makopane
South Africa,Limpopo,0601,Makopane
South Africa,Limpopo,0602,Potgietersrus
South Africa,Limpopo,0603,Potgietersrus
South Africa,Limpopo,0604,Potgietersrus
South Africa,Limpopo,0605,Potgietersrus
South Africa,Limpopo,0606,Potgietersrus
South Africa,Limpopo,0607,Potgietersrus
South Africa,Limpopo,0608,Potgietersrus
South Africa,Limpopo,0609,Potgietersrus
South Africa,Limpopo,0610,Potgietersrus
South Africa,Limpopo,0611,Potgietersrus
South Africa,Limpopo,0612,Potgietersrus
South Africa,Limpopo,0613,Potgietersrus
South Africa,Limpopo,0615,Potgietersrus
South Africa,Limpopo,0616,Nkwe
South Africa,Limpopo,0617,Potgietersrus
South Africa,Limpopo,0618,Potgietersrus
South Africa,Limpopo,0619,Potgietersrus
South Africa,Limpopo,0620,Potgietersrus
South Africa,Limpopo,0621,Potgietersrus
South Africa,Limpopo,0622,Potgietersrus
South Africa,Limpopo,0623,Potgietersrus
South Africa,Limpopo,0624,Potgietersrus
South Africa,Limpopo,0626,Bochum
South Africa,Limpopo,0628,Groothoek
South Africa,Limpopo,0629,Potgietersrus
South Africa,Limpopo,0630,Potgietersrus
South Africa,Limpopo,0631,Gompies
South Africa,Limpopo,0632,Pietersburg
South Africa,Limpopo,0633,Mokamole
South Africa,Limpopo,0634,Potgietersrus
South Africa,Limpopo,0635,Potgietersrus
South Africa,Limpopo,0636,Potgietersrus
South Africa,Limpopo,0637,Potgietersrus
South Africa,Limpopo,0638,Potgietersrus
South Africa,Limpopo,0639,Rebone
South Africa,Limpopo,0640,Hlogo-ya-nku
South Africa,Limpopo,0641,Babirwa
South Africa,Limpopo,0642,Rebone
South Africa,Limpopo,0643,Potgieterus
South Africa,Limpopo,0644,Potgieterus
South Africa,Limpopo,0645,Potgietersrus
South Africa,Limpopo,0646,Potgieterus
South Africa,Limpopo,0647,Potgieterus
South Africa,Limpopo,0648,Potgietersrus
South Africa,Limpopo,0649,Potgietersrus
South Africa,Limpopo,0650,Potgieterus
South Africa,Limpopo,0651,Potgieterus
South Africa,Limpopo,0652,Potgietersrus
South Africa,Limpopo,0654,Potgietersrus
South Africa,Limpopo,0656,Potgietersrus
South Africa,Limpopo,0657,Potgietersrus
South Africa,Limpopo,0658,Potgietersrus
South Africa,Limpopo,0659,Potgietersrus
South Africa,Limpopo,0690,Potgietersrus
South Africa,Limpopo,0699,Pietersburg
South Africa,Limpopo,0700,Polokwane
South Africa,Limpopo,0701,Pietersburg
South Africa,Limpopo,0702,Pietersburg
South Africa,Limpopo,0703,Pietersburg
South Africa,Limpopo,0704,Pietersburg
South Africa,Limpopo,0705,Pietersburg
South Africa,Limpopo,0706,Pietersburg
South Africa,Limpopo,0707,Pietersburg
South Africa,Limpopo,0708,Pietersburg
South Africa,Limpopo,0710,Pietersburg
South Africa,Limpopo,0711,Pietersburg
South Africa,Limpopo,0712,Pietersburg
South Africa,Limpopo,0713,Pietersburg
South Africa,Limpopo,0714,Pietersburg
South Africa,Limpopo,0715,Dendron
South Africa,Limpopo,0716,Pietersburg
South Africa,Limpopo,0717,Pietersburg
South Africa,Limpopo,0718,Bochum
South Africa,Limpopo,0719,Pietersburg
South Africa,Limpopo,0720,Pietersburg
South Africa,Limpopo,0721,Dikgale
South Africa,Limpopo,0722,Pietersburg
South Africa,Limpopo,0723,Pietersburg
South Africa,Limpopo,0724,Pietersburg
South Africa,Limpopo,0725,Pietersburg
South Africa,Limpopo,0726,Pietersburg
South Africa,Limpopo,0727,Boyne
South Africa,Limpopo,0728,Boyne
South Africa,Limpopo,0729,Lonsdale
South Africa,Limpopo,0730,Pietersburg
South Africa,Limpopo,0731,Pietersburg
South Africa,Limpopo,0732,Mphogodiba
South Africa,Limpopo,0733,Pietersburg
South Africa,Limpopo,0734,Pietersburg
South Africa,Limpopo,0735,Pietersburg
South Africa,Limpopo,0736,Mphahlele
South Africa,Limpopo,0737,Pietersburg
South Africa,Limpopo,0738,Pietersburg
South Africa,Limpopo,0739,Pietersburg
South Africa,Limpopo,0740,Pietersburg
South Africa,Limpopo,0741,Pietersburg
South Africa,Limpopo,0742,Pietersburg
South Africa,Limpopo,0743,Mashashane
South Africa,Limpopo,0744,Pietersburg
South Africa,Limpopo,0745,Chuenespoort
South Africa,Limpopo,0746,Bakone
South Africa,Limpopo,0747,Pietersburg
South Africa,Limpopo,0748,Juno
South Africa,Limpopo,0749,Atok
South Africa,Limpopo,0750,Pietersburg
South Africa,Limpopo,0751,Pietersburg
South Africa,Limpopo,0752,Pietersburg
South Africa,Limpopo,0753,Manyama
South Africa,Limpopo,0754,Pietersburg
South Africa,Limpopo,0755,Pietersburg
South Africa,Limpopo,0756,Pietersburg
South Africa,Limpopo,0757,Bakone
South Africa,Limpopo,0758,Juno
South Africa,Limpopo,0759,Pietersburg
South Africa,Limpopo,0760,Pietersburg
South Africa,Limpopo,0761,Mphahlele
South Africa,Limpopo,0762,Mphahlele
South Africa,Limpopo,0763,Sovenga
South Africa,Limpopo,0764,Boyne
South Africa,Limpopo,0765,Pietersburg
South Africa,Limpopo,0766,Boyne
South Africa,Limpopo,0767,Lonsdale
South Africa,Limpopo,0768,Pietersburg
South Africa,Limpopo,0769,Pietersburg
South Africa,Limpopo,0770,Pietersburg
South Africa,Limpopo,0771,Letsitele
South Africa,Limpopo,0772,Letsitele
South Africa,Limpopo,0773,Pietersburg
South Africa,Limpopo,0774,Pietersburg
South Africa,Limpopo,0775,Pietersburg
South Africa,Limpopo,0776,Pietersburg
South Africa,Limpopo,0777,Makhudu
South Africa,Limpopo,0778,Superbia
South Africa,Limpopo,0779,Superbia
South Africa,Limpopo,0780,Pietersburg
South Africa,Limpopo,0781,Pietersburg
South Africa,Limpopo,0782,Pietersburg
South Africa,Limpopo,0783,Pietersburg
South Africa,Limpopo,0784,Seshego
South Africa,Limpopo,0785,Mphahlele
South Africa,Limpopo,0786,Dendron
South Africa,Limpopo,0787,Pietersburg
South Africa,Limpopo,0788,Superbia
South Africa,Limpopo,0789,Pietersburg
South Africa,Limpopo,0790,Bochum
South Africa,Limpopo,0791,Pietersburg
South Africa,Limpopo,0792,Pietersburg
South Africa,Limpopo,0793,Pietersburg
South Africa,Limpopo,0794,Pietersburg
South Africa,Limpopo,0795,Seshego
South Africa,Limpopo,0796,Pietersburg
South Africa,Limpopo,0797,Pietersburg
South Africa,Limpopo,0798,Pietersburg
South Africa,Limpopo,0799,Pietersburg
South Africa,Limpopo,0800,Pietersburg
South Africa,Limpopo,0801,Pietersburg
South Africa,Limpopo,0802,Pietersburg
South Africa,Limpopo,0803,Garakgoatha
South Africa,Limpopo,0804,Khujwana
South Africa,Limpopo,0805,Pietersburg
South Africa,Limpopo,0806,Pietersburg
South Africa,Limpopo,0807,Bochum
South Africa,Limpopo,0808,Pietersburg
South Africa,Limpopo,0809,Pietersburg
South Africa,Limpopo,0810,Soekmekaar
South Africa,Limpopo,0811,Mokomene
South Africa,Limpopo,0812,Dwars river
South Africa,Limpopo,0813,Pietersburg
South Africa,Limpopo,0814,Pietersburg
South Africa,Limpopo,0815,Duiwelskloof
South Africa,Limpopo,0816,Malamulele
South Africa,Limpopo,0817,Mulima
South Africa,Limpopo,0818,Pietersburg
South Africa,Limpopo,0819,Pietersburg
South Africa,Limpopo,0820,Pietersburg
South Africa,Limpopo,0821,Pietersburg
South Africa,Limpopo,0822,Pietersburg
South Africa,Limpopo,0823,Pietersburg
South Africa,Limpopo,0824,Pietersburg
South Africa,Limpopo,0825,Pietersburg
South Africa,Limpopo,0826,Giyani
South Africa,Limpopo,0827,Giyani
South Africa,Limpopo,0828,Bochum
South Africa,Limpopo,0829,Giyani
South Africa,Limpopo,0830,Shiviti
South Africa,Limpopo,0831,Malamulele
South Africa,Limpopo,0832,Giyani
South Africa,Limpopo,0833,Malamulele
South Africa,Limpopo,0834,Giyani
South Africa,Limpopo,0835,Duiwelskloof
South Africa,Limpopo,0836,Juno
South Africa,Limpopo,0837,Modjadji
South Africa,Limpopo,0838,Gakgapane
South Africa,Limpopo,0839,Giyani
South Africa,Limpopo,0840,Giyani
South Africa,Limpopo,0841,Giyani
South Africa,Limpopo,0842,Giyani
South Africa,Limpopo,0843,Giyani
South Africa,Limpopo,0844,Giyani
South Africa,Limpopo,0845,Juno
South Africa,Limpopo,0846,Giyani
South Africa,Limpopo,0847,Gakgapane
South Africa,Limpopo,0848,Pietersburg
South Africa,Limpopo,0849,Bochum
South Africa,Limpopo,0850,Tzaneen
South Africa,Limpopo,0852,Tzaneen
South Africa,Limpopo,0854,Tzaneen
South Africa,Limpopo,0855,Pietersburg
South Africa,Limpopo,0857,Sundyside
South Africa,Limpopo,0858,Giyani
South Africa,Limpopo,0859,Tzaneen
South Africa,Limpopo,0860,Tzaneen
South Africa,Limpopo,0861,Tzaneen
South Africa,Limpopo,0862,Gakgapane
South Africa,Limpopo,0863,Tzaneen
South Africa,Limpopo,0864,Pietersburg
South Africa,Limpopo,0865,Pietersburg
South Africa,Limpopo,0866,Pietersburg
South Africa,Limpopo,0867,Pietersburg
South Africa,Limpopo,0868,Tzaneen
South Africa,Limpopo,0869,Giyani east
South Africa,Limpopo,0870,Letaba
South Africa,Limpopo,0871,Tzaneen
South Africa,Limpopo,0872,Tzaneen
South Africa,Limpopo,0873,Tzaneen
South Africa,Limpopo,0875,Tzaneen
South Africa,Limpopo,0876,Tzaneen
South Africa,Limpopo,0877,Letaba
South Africa,Limpopo,0878,Letaba
South Africa,Limpopo,0879,Mamatsha
South Africa,Limpopo,0881,Pietersburg
South Africa,Limpopo,0883,Pietersburg
South Africa,Limpopo,0884,Pietersburg
South Africa,Limpopo,0885,Aventura eiland
South Africa,Limpopo,0886,Letsitele
South Africa,Limpopo,0889,Pietersburg
South Africa,Limpopo,0890,Letsitele
South Africa,Limpopo,0891,Trichardtsdal
South Africa,Limpopo,0893,Trichardtsdal
South Africa,Limpopo,0894,Pietersburg
South Africa,Limpopo,0895,Gravelotte
South Africa,Limpopo,0896,Trichardtsdal
South Africa,Limpopo,0897,Gakgapane
South Africa,Limpopo,0898,Pietersburg
South Africa,Limpopo,0899,Pietersburg
South Africa,Limpopo,0900,Messina
South Africa,Limpopo,0901,Louis trichardt
South Africa,Limpopo,0902,Limpopo
South Africa,Limpopo,0903,Pietersburg
South Africa,Limpopo,0904,Nancefield
South Africa,Limpopo,0905,Louis trichardt
South Africa,Limpopo,0906,Sibasa
South Africa,Limpopo,0907,Sibasa
South Africa,Limpopo,0909,Louis trichardt
South Africa,Limpopo,0910,Pietersburg
South Africa,Limpopo,0912,Pietersburg
South Africa,Limpopo,0913,Pietersburg
South Africa,Limpopo,0914,Pietersburg
South Africa,Limpopo,0915,Giyani
South Africa,Limpopo,0916,Juno
South Africa,Limpopo,0917,Louis trichardt
South Africa,Limpopo,0918,Thamagane
South Africa,Limpopo,0919,Ditenteng
South Africa,Limpopo,0920,Elti villas ext 1
South Africa,Limpopo,0921,Louis trichardt
South Africa,Limpopo,0922,Louis trichardt
South Africa,Limpopo,0923,Louis trichardt
South Africa,Limpopo,0924,Louis trichardt
South Africa,Limpopo,0925,Louis trichardt
South Africa,Limpopo,0926,Sibasa
South Africa,Limpopo,0927,Malamulele
South Africa,Limpopo,0928,Malamulele
South Africa,Limpopo,0929,Thohoyandou
South Africa,Limpopo,0930,Giyani
South Africa,Limpopo,0931,Giyani
South Africa,Limpopo,0932,Giyani
South Africa,Limpopo,0933,Giyani
South Africa,Limpopo,0934,Louis trichardt
South Africa,Limpopo,0935,Louis trichardt
South Africa,Limpopo,0937,Louis trichardt
South Africa,Limpopo,0938,Tshilwavhusiku
South Africa,Limpopo,0939,Louis trichardt
South Africa,Limpopo,0940,Louis trichardt
South Africa,Limpopo,0941,Giyani
South Africa,Limpopo,0942,Louis trichardt
South Africa,Limpopo,0943,Louis trichardt
South Africa,Limpopo,0944,Giyani
South Africa,Limpopo,0945,Shayandima
South Africa,Limpopo,0946,Muila
South Africa,Limpopo,0947,Mulenzhe
South Africa,Limpopo,0948,Louis trichardt
South Africa,Limpopo,0949,Louis trichardt
South Africa,Limpopo,0950,Pietersburg
South Africa,Limpopo,0951,Tshakhuma
South Africa,Limpopo,0952,Thohoyandou
South Africa,Limpopo,0953,Malamulele
South Africa,Limpopo,0954,Louis trichardt
South Africa,Limpopo,0955,Dzanani
South Africa,Limpopo,0956,Mutale
South Africa,Limpopo,0957,Louis trichardt
South Africa,Limpopo,0958,Shakadza
South Africa,Limpopo,0959,Thohoyandou
South Africa,Limpopo,0960,Bungeni
South Africa,Limpopo,0961,Ga-raphukula
South Africa,Limpopo,0962,Mamadi
South Africa,Limpopo,0963,Tshitandani
South Africa,Limpopo,0964,Pietersburg
South Africa,Limpopo,0967,Manenzhe
South Africa,Limpopo,0968,Sibasa
South Africa,Limpopo,0969,Sibasa
South Africa,Limpopo,0970,Sibasa
South Africa,Limpopo,0971,Sibasa
South Africa,Limpopo,0972,Sibasa
South Africa,Limpopo,0973,Sibasa
South Africa,Limpopo,0974,Sibasa
South Africa,Limpopo,0975,Sibasa
South Africa,Limpopo,0976,Muthathi
South Africa,Limpopo,0977,Sibasa
South Africa,Limpopo,0978,Mukula
South Africa,Limpopo,0979,Sibasa
South Africa,Limpopo,0980,Sibasa
South Africa,Limpopo,0981,Malamulele
South Africa,Limpopo,0982,Malamulele
South Africa,Limpopo,0983,Giyani
South Africa,Limpopo,0984,Giyani
South Africa,Limpopo,0985,Giyani
South Africa,Limpopo,0986,Giyani
South Africa,Limpopo,0987,Giyani
South Africa,Limpopo,0988,Sibasa
South Africa,Limpopo,0989,Sibasa
South Africa,Limpopo,0990,Sibasa
South Africa,Limpopo,0991,Mudimeli
South Africa,Limpopo,0992,Mungomani
South Africa,Limpopo,0993,Sibasa
South Africa,Limpopo,0994,Sibasa
South Africa,Limpopo,0995,Sibasa
South Africa,Limpopo,0996,Sibasa
South Africa,Limpopo,0997,Malamulele
South Africa,Limpopo,0998,Malamulele
South Africa,Limpopo,0999,Malamulele
South Africa,Gauteng,1000,Cullinan
South Africa,Gauteng,1001,Rayton
South Africa,Gauteng,1002,Cullinan
South Africa,Gauteng,1003,Cullinan
South Africa,Gauteng,1004,Cullinan
South Africa,Gauteng,1005,Cullinan
South Africa,Gauteng,1007,Malamulele
South Africa,Gauteng,1008,Malamulele
South Africa,Gauteng,1020,Bronkhorstspruit
South Africa,Gauteng,1021,Bronkhorstspruit
South Africa,Gauteng,1022,Bronkhorstspruit
South Africa,Gauteng,1023,Kwamhlanga
South Africa,Gauteng,1024,Bronkhorstspruit
South Africa,Gauteng,1025,Bronkhorstspruit
South Africa,Gauteng,1026,Bronkhorstspruit
South Africa,Gauteng,1027,Bronkhorstspruit
South Africa,Gauteng,1028,Bronkhorstspruit
South Africa,Mpumalanga,1030,Groblersdal
South Africa,Mpumalanga,1031,Undetermined
South Africa,Mpumalanga,1032,Witbank
South Africa,Mpumalanga,1033,Coalville
South Africa,Mpumalanga,1034,Witbank
South Africa,Mpumalanga,1035,Witbank
South Africa,Mpumalanga,1036,Witbank
South Africa,Mpumalanga,1037,Witbank
South Africa,Mpumalanga,1038,Witbank
South Africa,Mpumalanga,1039,Witbank
South Africa,Mpumalanga,1040,Witbank
South Africa,Mpumalanga,1042,Witbank
South Africa,Mpumalanga,1043,Witbank
South Africa,Mpumalanga,1044,Witbank
South Africa,Mpumalanga,1045,Witbank
South Africa,Mpumalanga,1046,Witbank
South Africa,Mpumalanga,1047,Witbank
South Africa,Mpumalanga,1048,Witbank
South Africa,Mpumalanga,1049,Witbank
South Africa,Mpumalanga,1057,Monsterus
South Africa,Mpumalanga,1058,Sekhukhune
South Africa,Mpumalanga,1059,Mare
South Africa,Mpumalanga,1060,Groblersdal
South Africa,Mpumalanga,1061,Groblersdal
South Africa,Limpopo,1062,Marble hall
South Africa,Mpumalanga,1063,Sekhukhune
South Africa,Mpumalanga,1064,Groblersdal
South Africa,Mpumalanga,1067,Marulaneng
South Africa,Mpumalanga,1072,Witbank
South Africa,Mpumalanga,1073,Kwaguqa
South Africa,Mpumalanga,1074,Witbank
South Africa,Mpumalanga,1075,Witbank
South Africa,Mpumalanga,1076,Witbank
South Africa,Mpumalanga,1077,Witbank
South Africa,Mpumalanga,1078,Mpudulle
South Africa,Mpumalanga,1080,Witbank
South Africa,Mpumalanga,1081,Witbank
South Africa,Mpumalanga,1082,Witbank
South Africa,Mpumalanga,1085,Burgersfort
South Africa,Mpumalanga,1090,Witbank
South Africa,Mpumalanga,1093,Undetermined
South Africa,Mpumalanga,1095,Hendrina
South Africa,Mpumalanga,1096,Pullens hope
South Africa,Mpumalanga,1097,Rietkuil
South Africa,Mpumalanga,1098,Hendrina
South Africa,Mpumalanga,1100,Belfast
South Africa,Mpumalanga,1101,Belfast
South Africa,Mpumalanga,1102,Belfast
South Africa,Mpumalanga,1110,Dullstroom
South Africa,Mpumalanga,1112,Witbank
South Africa,Mpumalanga,1120,Lydenburg
South Africa,Mpumalanga,1121,Belfast
South Africa,Mpumalanga,1122,Lydenburg
South Africa,Mpumalanga,1123,Lydenburg
South Africa,Mpumalanga,1124,Sekhukhune
South Africa,Mpumalanga,1126,Lydenburg
South Africa,Mpumalanga,1127,Sekhukhune
South Africa,Mpumalanga,1128,Driekop
South Africa,Mpumalanga,1129,Driekop
South Africa,Mpumalanga,1130,Belfast
South Africa,Mpumalanga,1131,Driekop
South Africa,Mpumalanga,1132,Nelspruit
South Africa,Mpumalanga,1133,Steelpoort
South Africa,Mpumalanga,1150,Burgersfort
South Africa,Mpumalanga,1151,Belfast
South Africa,Mpumalanga,1152,Belfast
South Africa,Mpumalanga,1153,Belfast
South Africa,Mpumalanga,1154,Penge
South Africa,Mpumalanga,1160,Burgersfort
South Africa,Mpumalanga,1170,Machadodorp
South Africa,Mpumalanga,1184,Undetermined
South Africa,Mpumalanga,1185,Carolina
South Africa,Mpumalanga,1190,Badplaas
South Africa,Mpumalanga,1192,Belfast
South Africa,Mpumalanga,1193,Belfast
South Africa,Mpumalanga,1194,Belfast
South Africa,Mpumalanga,1195,Waterval-boven
South Africa,Mpumalanga,1200,Nelspruit
South Africa,Mpumalanga,1201,Nelspruit
South Africa,Mpumalanga,1202,Nelspruit
South Africa,Mpumalanga,1203,Nelspruit
South Africa,Mpumalanga,1204,Nelspruit
South Africa,Mpumalanga,1205,Nelspruit
South Africa,Mpumalanga,1206,Nelspruit
South Africa,Mpumalanga,1207,Nelspruit
South Africa,Mpumalanga,1208,Nelspruit
South Africa,Mpumalanga,1209,Nelspruit
South Africa,Mpumalanga,1211,Nelspruit
South Africa,Mpumalanga,1212,Nelspruit
South Africa,Mpumalanga,1213,Nelspruit
South Africa,Mpumalanga,1214,Kanyamazane
South Africa,Mpumalanga,1215,Daantjie
South Africa,Mpumalanga,1216,Kanyamazane
South Africa,Mpumalanga,1217,Kanyamazane
South Africa,Mpumalanga,1218,Nelspruit
South Africa,Mpumalanga,1219,Nelspruit north
South Africa,Mpumalanga,1220,Nelspruit
South Africa,Mpumalanga,1222,Nelspruit
South Africa,Mpumalanga,1223,Nelspruit
South Africa,Mpumalanga,1224,Nelspruit
South Africa,Mpumalanga,1227,Acornhoek
South Africa,Mpumalanga,1234,Undetermined
South Africa,Mpumalanga,1240,Hazyview
South Africa,Mpumalanga,1241,Nelspruit
South Africa,Mpumalanga,1242,Hazyview
South Africa,Mpumalanga,1245,White river
South Africa,Mpumalanga,1246,Hazyview
South Africa,Mpumalanga,1247,Kabokweni
South Africa,Mpumalanga,1248,Nelspruit
South Africa,Mpumalanga,1249,Nelspruit
South Africa,Mpumalanga,1250,Kabokweni
South Africa,Mpumalanga,1251,Kabokweni
South Africa,Mpumalanga,1252,Kabokweni
South Africa,Mpumalanga,1253,Hazyview
South Africa,Mpumalanga,1254,Whiteriver
South Africa,Mpumalanga,1255,Bushbuckridge
South Africa,Mpumalanga,1256,White river
South Africa,Mpumalanga,1257,Legogote
South Africa,Mpumalanga,1258,Madras
South Africa,Mpumalanga,1260,Sabie
South Africa,Mpumalanga,1270,Graskop
South Africa,Mpumalanga,1271,Graskop
South Africa,Mpumalanga,1273,Graskop
South Africa,Mpumalanga,1274,Graskop
South Africa,Mpumalanga,1280,Bosbokrand
South Africa,Mpumalanga,1281,Nelspruit
South Africa,Mpumalanga,1282,Bushbuckridge
South Africa,Mpumalanga,1283,Bushbuckridge
South Africa,Mpumalanga,1284,Bushbuckridge
South Africa,Mpumalanga,1285,Bushbuckridge
South Africa,Mpumalanga,1286,Bosbokrand
South Africa,Mpumalanga,1287,Ximhungwe
South Africa,Mpumalanga,1288,Nelspruit
South Africa,Mpumalanga,1290,Sabie
South Africa,Mpumalanga,1291,Lilydale
South Africa,Mpumalanga,1295,Nelspruit
South Africa,Mpumalanga,1300,Barberton
South Africa,Mpumalanga,1301,Belfast
South Africa,Mpumalanga,1302,Nelspruit
South Africa,Mpumalanga,1303,Barberton
South Africa,Mpumalanga,1304,Nelspruit
South Africa,Mpumalanga,1307,Barberton
South Africa,Mpumalanga,1309,Barberton
South Africa,Mpumalanga,1320,Malelane
South Africa,Mpumalanga,1330,Hectorspruit
South Africa,Mpumalanga,1331,Malelane
South Africa,Mpumalanga,1332,Shongwe mission
South Africa,Mpumalanga,1333,Imbongozi
South Africa,Mpumalanga,1334,Nelspruit
South Africa,Mpumalanga,1335,Shongwe mission
South Africa,Mpumalanga,1336,Shongwe mission
South Africa,Mpumalanga,1337,Shongwe mission
South Africa,Mpumalanga,1340,Komatipoort
South Africa,Mpumalanga,1341,Komatipoort
South Africa,Mpumalanga,1342,Komatipoort
South Africa,Mpumalanga,1343,Komatipoort
South Africa,Mpumalanga,1344,Komatipoort
South Africa,Mpumalanga,1345,Komatipoort
South Africa,Mpumalanga,1346,Uthokozani
South Africa,Mpumalanga,1347,Kwalugedlane
South Africa,Mpumalanga,1348,Kwalugedlane
South Africa,Mpumalanga,1349,Nelspruit
South Africa,Mpumalanga,1350,Nelspruit
South Africa,Mpumalanga,1351,Skukuza
South Africa,Mpumalanga,1352,Kwalugedlane
South Africa,Mpumalanga,1353,Skukuza
South Africa,Mpumalanga,1354,Skukuza
South Africa,Mpumalanga,1355,Nelspruit
South Africa,Mpumalanga,1356,Skukuza
South Africa,Mpumalanga,1357,Kwa-sibhejane
South Africa,Mpumalanga,1358,Phiva
South Africa,Mpumalanga,1359,Mdladla
South Africa,Mpumalanga,1360,Acornhoek
South Africa,Mpumalanga,1361,Acornhoek
South Africa,Mpumalanga,1362,Hluvukani
South Africa,Mpumalanga,1363,Hluvukani
South Africa,Mpumalanga,1364,Hluvukani
South Africa,Mpumalanga,1365,Acornhoek
South Africa,Mpumalanga,1366,Thulamahashe
South Africa,Mpumalanga,1367,Acornhoek
South Africa,Mpumalanga,1368,Ximhungwe
South Africa,Mpumalanga,1369,Thulamahashe
South Africa,Mpumalanga,1370,Acornhoek
South Africa,Limpopo,1371,Hoedspruit
South Africa,Mpumalanga,1372,Liphungu
South Africa,Mpumalanga,1373,M'lapa-kgomo
South Africa,Mpumalanga,1374,Songeni
South Africa,Mpumalanga,1375,Rooiboklaagte
South Africa,Mpumalanga,1377,Kwalugedlane
South Africa,Mpumalanga,1378,Acornhoek
South Africa,Limpopo,1380,Hoedspruit
South Africa,Limpopo,1382,Hoedspruit
South Africa,Limpopo,1384,Hoedspruit
South Africa,Limpopo,1389,Phalaborwa
South Africa,Limpopo,1390,Phalaborwa
South Africa,Limpopo,1391,Phalaborwa
South Africa,Limpopo,1392,Phalaborwa
South Africa,Limpopo,1393,Phalaborwa
South Africa,Limpopo,1394,Phalaborwa
South Africa,Limpopo,1395,Phalaborwa
South Africa,Limpopo,1396,Phalaborwa
South Africa,Limpopo,1397,Namakgale
South Africa,Limpopo,1398,Batubatse
South Africa,Gauteng,1421,Katlehong
South Africa,Gauteng,1422,Germiston
South Africa,Gauteng,1423,Germiston
South Africa,Gauteng,1425,Katlehong
South Africa,Gauteng,1426,Katlehong
South Africa,Gauteng,1427,Tokoza
South Africa,Gauteng,1428,Alrode
South Africa,Gauteng,1429,Elandsfontein
South Africa,Gauteng,1431,Katlehong
South Africa,Gauteng,1432,Katlehong
South Africa,Gauteng,1435,Katlehong ext
South Africa,Gauteng,1436,Katlehong ext
South Africa,Gauteng,1437,Katlehong
South Africa,Gauteng,1438,Gauteng
South Africa,Gauteng,1439,Heidelberg
South Africa,Gauteng,1440,Heidelberg
South Africa,Gauteng,1441,Gauteng
South Africa,Gauteng,1442,Heidelberg
South Africa,Gauteng,1443,Heidelberg
South Africa,Gauteng,1444,Heidelberg
South Africa,Gauteng,1445,Katlehong
South Africa,Gauteng,1447,Alberton
South Africa,Gauteng,1448,Alberton
South Africa,Gauteng,1449,Alberton
South Africa,Gauteng,1450,Alberton
South Africa,Gauteng,1451,Alberton
South Africa,Gauteng,1452,Alberton
South Africa,Gauteng,1453,Alberton
South Africa,Gauteng,1454,Alberton
South Africa,Gauteng,1455,Alberton
South Africa,Gauteng,1456,Alberton
South Africa,Gauteng,1457,Alberton
South Africa,Gauteng,1458,Alberton
South Africa,Gauteng,1465,Atlaspark
South Africa,Gauteng,1468,Rusloo
South Africa,Gauteng,1473,Rusloo
South Africa,Gauteng,1475,Rusloo
South Africa,Gauteng,1476,Rusloo ext
South Africa,Gauteng,1481,Alberton
South Africa,Gauteng,1483,Jet park speed services networks
South Africa,Gauteng,1484,Alrode
South Africa,Gauteng,1486,Rusloo
South Africa,Gauteng,1491,Nigel
South Africa,Gauteng,1492,Nigel
South Africa,Gauteng,1494,Duduza
South Africa,Gauteng,1495,Nigel
South Africa,Gauteng,1496,Duduza
South Africa,Gauteng,1499,Undetermined
South Africa,Gauteng,1510,Bapsfontein
South Africa,Gauteng,1512,Petit
South Africa,Gauteng,1513,Putfontein
South Africa,Gauteng,1551,Tsakane
South Africa,Gauteng,1558,Springs
South Africa,Gauteng,1559,Springs
South Africa,Gauteng,1560,Springs
South Africa,Gauteng,1562,Springs
South Africa,Gauteng,1563,Springs
South Africa,Gauteng,1564,Springs
South Africa,Gauteng,1565,Springs
South Africa,Gauteng,1566,Springs
South Africa,Gauteng,1567,Springs
South Africa,Gauteng,1568,Springs
South Africa,Gauteng,1569,Springs
South Africa,Gauteng,1570,Springs
South Africa,Gauteng,1571,Springs
South Africa,Gauteng,1572,Springs
South Africa,Gauteng,1574,Springs
South Africa,Gauteng,1575,Kwathema
South Africa,Gauteng,1576,Kwathema
South Africa,Gauteng,1577,Springs
South Africa,Gauteng,1578,Springs
South Africa,Gauteng,1590,Nigel
South Africa,Gauteng,1600,Isando
South Africa,Gauteng,1601,Elandsfontein
South Africa,Gauteng,1609,Edenvale
South Africa,Gauteng,1610,Gauteng
South Africa,Gauteng,1611,Edenvale
South Africa,Gauteng,1612,Edenvale
South Africa,Gauteng,1613,Edenvale
South Africa,Gauteng,1614,Edenvale
South Africa,Gauteng,1617,Kempton gate
South Africa,Gauteng,1618,Kempton park
South Africa,Gauteng,1619,Kempton park
South Africa,Gauteng,1620,Kempton park
South Africa,Gauteng,1621,Kempton park
South Africa,Gauteng,1622,Kempton park
South Africa,Gauteng,1623,Kempton park
South Africa,Gauteng,1624,Kempton park
South Africa,Gauteng,1625,Kempton park
South Africa,Gauteng,1626,Kempton park
South Africa,Gauteng,1627,Kempton park
South Africa,Gauteng,1628,Kempton park
South Africa,Gauteng,1629,Kempton park
South Africa,Gauteng,1630,Kempton park
South Africa,Gauteng,1631,Kempton park
South Africa,Gauteng,1632,Kempton park
South Africa,Gauteng,1634,Kempton park
South Africa,Gauteng,1635,Tembisa
South Africa,Gauteng,1636,Tembisa
South Africa,Gauteng,1637,Tembisa
South Africa,Gauteng,1638,Kempton park
South Africa,Gauteng,1639,Kempton park
South Africa,Gauteng,1640,Tembisa
South Africa,Gauteng,1645,Edenvale
South Africa,Gauteng,1648,Undetermined
South Africa,Gauteng,1654,Undetermined
South Africa,Gauteng,1665,Olifantsfontein
South Africa,Gauteng,1666,Olifantsfontein
South Africa,Gauteng,1667,Olifantsfontein
South Africa,Gauteng,1680,Undetermined
South Africa,Gauteng,1682,Crowthorne
South Africa,Gauteng,1683,Randjesfontein
South Africa,Gauteng,1684,Halfway house
South Africa,Gauteng,1685,Allandale
South Africa,Gauteng,1686,Halfway house
South Africa,Gauteng,1687,Halfway house
South Africa,Gauteng,1688,Rabie ridge
South Africa,Gauteng,1689,Halfway house
South Africa,Gauteng,1690,Tembisa
South Africa,Gauteng,1691,Tembisa
South Africa,Gauteng,1692,Halfway house
South Africa,Gauteng,1693,Halfway house
South Africa,Gauteng,1698,Sybella
South Africa,Gauteng,1718,Krugersdorp
South Africa,Gauteng,1723,Dobsonville
South Africa,Gauteng,1724,Florida
South Africa,Gauteng,1738,Undetermined
South Africa,Gauteng,1739,Kagiso
South Africa,Gauteng,1740,Krugersdorp
South Africa,Gauteng,1741,Krugersdorp
South Africa,Gauteng,1742,Krugersdorp
South Africa,Gauteng,1743,Krugersdorp
South Africa,Gauteng,1744,Kagiso
South Africa,Gauteng,1745,Krugersdorp
South Africa,Gauteng,1746,Krugersdorp
South Africa,Gauteng,1747,Krugersdorp
South Africa,Gauteng,1748,Krugersdorp
South Africa,Gauteng,1749,Krugersdorp
South Africa,Gauteng,1750,Azaadville
South Africa,Gauteng,1751,Krugersdorp
South Africa,Gauteng,1752,Krugersdorp
South Africa,Gauteng,1753,Kagiso
South Africa,Gauteng,1754,Azaadville
South Africa,Gauteng,1755,Kagiso north
South Africa,Gauteng,1756,Krugersdorp
South Africa,Gauteng,1758,Kagiso east
South Africa,Gauteng,1759,Kocksvlei
South Africa,Gauteng,1760,Randfontein
South Africa,Gauteng,1763,Randfontein
South Africa,Gauteng,1764,Kocksvlei
South Africa,Gauteng,1765,Randfontein
South Africa,Gauteng,1766,Mohlakeng
South Africa,Gauteng,1767,Randfontein
South Africa,Gauteng,1771,Randfontein
South Africa,Gauteng,1772,Westonaria
South Africa,Gauteng,1775,Krugersdorp
South Africa,Gauteng,1779,Bekkersdal
South Africa,North West,1780,Westonaria
South Africa,Gauteng,1781,Westonaria
South Africa,Gauteng,1782,Bekkersdal
South Africa,Gauteng,1784,Westonaria
South Africa,Gauteng,1785,Westonaria
South Africa,North West,1786,Westonaria
South Africa,Gauteng,1787,Westonaria
South Africa,Gauteng,1788,Westonaria
South Africa,Gauteng,1789,Westonaria
South Africa,Gauteng,1790,Hekpoort
South Africa,Gauteng,1791,Krugersdorp
South Africa,Gauteng,1800,Dube
South Africa,Gauteng,1801,Dube
South Africa,Gauteng,1803,Meadowlands
South Africa,Gauteng,1804,Diepkloof
South Africa,Gauteng,1805,Orange farm
South Africa,Gauteng,1806,Orlando
South Africa,Gauteng,1809,Lenasia
South Africa,Gauteng,1811,Eldoradopark
South Africa,Gauteng,1812,Eldoradopark
South Africa,Gauteng,1813,Eldoradopark
South Africa,Gauteng,1814,Tshiawelo
South Africa,Gauteng,1815,Tshiawelo
South Africa,Gauteng,1816,Tshiawelo
South Africa,Gauteng,1817,Tshiawelo
South Africa,Gauteng,1818,Protea glen
South Africa,Gauteng,1819,Protea glen
South Africa,Gauteng,1820,Gauteng
South Africa,Gauteng,1821,Eldoradopark
South Africa,Gauteng,1822,Lenz
South Africa,Gauteng,1823,Lenasia
South Africa,Gauteng,1824,Ennerdale
South Africa,Gauteng,1825,Ennerdale
South Africa,Gauteng,1826,Ennerdale
South Africa,Gauteng,1827,Gauteng
South Africa,Gauteng,1828,Lenasia
South Africa,Gauteng,1829,Lenasia
South Africa,Gauteng,1830,Ennerdale
South Africa,Gauteng,1833,Lenasia
South Africa,Gauteng,1834,Protea glen
South Africa,Gauteng,1835,Lenasia
South Africa,Gauteng,1837,Pimville
South Africa,Gauteng,1838,Lenasia
South Africa,Gauteng,1841,Orange farm
South Africa,Gauteng,1842,Protea gardens
South Africa,Gauteng,1849,Orange Farm
South Africa,Gauteng,1851,Meadowlands
South Africa,Gauteng,1852,Meadowlands
South Africa,Gauteng,1853,Meadowlands
South Africa,Gauteng,1856,Undetermined
South Africa,Gauteng,1860,Tshiawelo
South Africa,Gauteng,1861,Naledi
South Africa,Gauteng,1862,Diepkloof
South Africa,Gauteng,1863,Dobsonville
South Africa,Gauteng,1864,Diepkloof
South Africa,Gauteng,1865,Dobsonville
South Africa,Gauteng,1869,Naledi
South Africa,Gauteng,1870,Orlando
South Africa,Gauteng,1871,Meyerton
South Africa,Gauteng,1872,Meyerton
South Africa,Gauteng,1873,Meyerton
South Africa,Gauteng,1874,Dobsonville
South Africa,Gauteng,1875,Dobsonville
South Africa,Gauteng,1876,Meyerton
South Africa,Gauteng,1884,De deur
South Africa,Gauteng,1904,Vereeniging
South Africa,Gauteng,1907,Mafatsana
South Africa,Gauteng,1913,Sharpeville
South Africa,Gauteng,1918,Meyerton
South Africa,Gauteng,1928,Krugersdorp
South Africa,Gauteng,1930,Vereeniging
South Africa,Gauteng,1931,Redan
South Africa,Gauteng,1932,Deneysville
South Africa,Gauteng,1933,Krugersdorp
South Africa,Gauteng,1934,Vereeniging
South Africa,Gauteng,1935,Vereeniging
South Africa,Gauteng,1937,Vereeniging
South Africa,Gauteng,1938,Meyerton
South Africa,Gauteng,1939,Vereeniging
South Africa,Gauteng,1941,Vereeniging
South Africa,Gauteng,1944,Vereeniging
South Africa,Gauteng,1960,Meyerton
South Africa,Gauteng,1961,Meyerton
South Africa,Gauteng,1962,Meyerton
South Africa,Gauteng,1963,Meyerton
South Africa,Gauteng,1980,Mafatsana
South Africa,Gauteng,1981,Mafatsana
South Africa,Gauteng,1982,Sebokeng
South Africa,Gauteng,1983,Sebokeng
South Africa,Gauteng,1984,Graceland ext 2
South Africa,Gauteng,1985,Undetermined
South Africa,Gauteng,2000,Johannesburg
South Africa,Gauteng,2001,Johannesburg
South Africa,Gauteng,2003,Johannesburg
South Africa,Gauteng,2004,Johannesburg
South Africa,Gauteng,2005,Johannesburg
South Africa,Gauteng,2006,Johannesburg
South Africa,Gauteng,2007,Bedfordview
South Africa,Gauteng,2008,Johannesburg
South Africa,Gauteng,2009,Johannesburg
South Africa,Gauteng,2010,Johannesburg
South Africa,Gauteng,2011,Denver
South Africa,Gauteng,2012,Johannesburg
South Africa,Gauteng,2013,Johannesburg
South Africa,Gauteng,2014,Johannesburg
South Africa,Gauteng,2015,Johannesburg
South Africa,Gauteng,2016,Johannesburg
South Africa,Gauteng,2017,Johannesburg
South Africa,Gauteng,2018,Johannesburg
South Africa,Gauteng,2019,Johannesburg
South Africa,Gauteng,2020,Johannesburg
South Africa,Gauteng,2021,Bryanston
South Africa,Gauteng,2022,Johannesburg
South Africa,Gauteng,2023,Johannesburg
South Africa,Gauteng,2024,Johannesburg
South Africa,Gauteng,2025,Crown mines
South Africa,Gauteng,2026,Johannesburg
South Africa,Gauteng,2028,Johannesburg
South Africa,Gauteng,2029,Emmarentia
South Africa,Gauteng,2030,Johannesburg
South Africa,Gauteng,2031,Bryanston
South Africa,Gauteng,2032,Randburg
South Africa,Gauteng,2033,Johannesburg
South Africa,Gauteng,2034,Johannesburg
South Africa,Gauteng,2035,Johannesburg
South Africa,Gauteng,2036,Johannesburg
South Africa,Gauteng,2037,Johannesburg
South Africa,Gauteng,2038,Johannesburg
South Africa,Gauteng,2040,Johannesburg
South Africa,Gauteng,2041,Johannesburg
South Africa,Gauteng,2042,Johannesburg
South Africa,Gauteng,2043,Johannesburg
South Africa,Gauteng,2044,Johannesburg
South Africa,Gauteng,2047,Johannesburg
South Africa,Gauteng,2048,Johannesburg
South Africa,Gauteng,2049,Johannesburg
South Africa,Gauteng,2050,Johannesburg
South Africa,Gauteng,2051,Johannesburg
South Africa,Gauteng,2052,Bryanston
South Africa,Gauteng,2053,Johannesburg
South Africa,Gauteng,2054,Bramley
South Africa,Gauteng,2055,Bryanston
South Africa,Gauteng,2056,Bryanston
South Africa,Gauteng,2057,Bryanston
South Africa,Gauteng,2058,Johannesburg
South Africa,Gauteng,2059,Johannesburg
South Africa,Gauteng,2060,Bryanston
South Africa,Gauteng,2061,Johannesburg
South Africa,Gauteng,2062,Johannesburg
South Africa,Gauteng,2063,Johannesburg
South Africa,Gauteng,2064,Johannesburg
South Africa,Gauteng,2065,Johannesburg
South Africa,Gauteng,2066,Bramley
South Africa,Gauteng,2067,Magalies view
South Africa,Gauteng,2068,Witkoppen
South Africa,Gauteng,2069,Bryanston
South Africa,Gauteng,2070,Hurlingham view
South Africa,Gauteng,2072,Bryanston
South Africa,Gauteng,2073,Bramley
South Africa,Gauteng,2074,Johannesburg
South Africa,Gauteng,2075,Rosherville
South Africa,Gauteng,2076,Johannesburg
South Africa,Gauteng,2077,Bryanston
South Africa,Gauteng,2078,Johannesburg
South Africa,Gauteng,2080,Woodlands
South Africa,Gauteng,2081,Johannesburg
South Africa,Gauteng,2082,Johannesburg
South Africa,Gauteng,2086,Undetermined
South Africa,Gauteng,2087,Undetermined
South Africa,Gauteng,2090,Bramley
South Africa,Gauteng,2091,Johannesburg
South Africa,Gauteng,2092,Crown mines
South Africa,Gauteng,2093,Johannesburg
South Africa,Gauteng,2094,Denver
South Africa,Gauteng,2095,Johannesburg
South Africa,Gauteng,2100,Johannesburg
South Africa,Gauteng,2101,Johannesburg
South Africa,Gauteng,2102,Johannesburg
South Africa,Gauteng,2103,Johannesburg
South Africa,Gauteng,2104,Johannesburg
South Africa,Gauteng,2105,Johannesburg
South Africa,Gauteng,2106,Johannesburg
South Africa,Gauteng,2107,Johannesburg
South Africa,Gauteng,2108,Johannesburg
South Africa,Gauteng,2109,Johannesburg
South Africa,Gauteng,2110,Johannesburg
South Africa,Gauteng,2111,Marshalltown
South Africa,Gauteng,2112,Johannesburg
South Africa,Gauteng,2113,Johannesburg
South Africa,Gauteng,2114,Florida
South Africa,Gauteng,2115,Johannesburg
South Africa,Gauteng,2116,Johannesburg
South Africa,Gauteng,2117,Johannesburg
South Africa,Gauteng,2118,Johannesburg
South Africa,Gauteng,2119,Johannesburg
South Africa,Gauteng,2120,Johannesburg
South Africa,Gauteng,2121,Johannesburg
South Africa,Gauteng,2122,Johannesburg
South Africa,Gauteng,2123,Johannesburg
South Africa,Gauteng,2124,Johannesburg
South Africa,Gauteng,2125,Randburg
South Africa,Gauteng,2128,Bryanston
South Africa,Gauteng,2129,Johannesburg
South Africa,Gauteng,2130,Johannesburg
South Africa,Gauteng,2131,Johannesburg
South Africa,Gauteng,2132,Johannesburg
South Africa,Gauteng,2134,Johannesburg
South Africa,Gauteng,2135,Johannesburg
South Africa,Gauteng,2136,Johannesburg
South Africa,Gauteng,2137,Johannesburg
South Africa,Gauteng,2139,Johannesburg
South Africa,Gauteng,2140,Johannesburg
South Africa,Gauteng,2141,Johannesburg
South Africa,Gauteng,2142,Johannesburg
South Africa,Gauteng,2143,Johannesburg
South Africa,Gauteng,2144,Bramley
South Africa,Gauteng,2145,Johannesburg
South Africa,Gauteng,2146,Sandton
South Africa,Gauteng,2147,Johannesburg
South Africa,Gauteng,2148,Bramley
South Africa,Gauteng,2149,Johannesburg
South Africa,Gauteng,2151,Johannesburg
South Africa,Gauteng,2152,Bryanston
South Africa,Gauteng,2153,Bloubosrand ext 9
South Africa,Gauteng,2154,Bromhof
South Africa,Gauteng,2155,Johannesburg
South Africa,Gauteng,2156,Johannesburg
South Africa,Gauteng,2157,Johannesburg
South Africa,Gauteng,2158,Johannesburg
South Africa,Gauteng,2159,Johannesburg
South Africa,Gauteng,2160,Johannesburg
South Africa,Gauteng,2161,Johannesburg
South Africa,Gauteng,2162,North riding
South Africa,Gauteng,2163,Johannesburg
South Africa,Gauteng,2164,Johannesburg
South Africa,Gauteng,2165,Bryanston
South Africa,Gauteng,2167,Randburg
South Africa,Gauteng,2168,Ridge terrace
South Africa,Gauteng,2169,Johannesburg
South Africa,Gauteng,2170,Johannesburg
South Africa,Gauteng,2171,Johannesburg
South Africa,Gauteng,2172,Sandton
South Africa,Gauteng,2188,Bloubosrand ext 9
South Africa,Gauteng,2189,Bryanston
South Africa,Gauteng,2190,Johannesburg
South Africa,Gauteng,2191,Bryanston
South Africa,Gauteng,2192,Johannesburg
South Africa,Gauteng,2193,Johannesburg
South Africa,Gauteng,2194,Johannesburg
South Africa,Gauteng,2195,Emmarentia
South Africa,Gauteng,2196,Bryanston
South Africa,Gauteng,2197,Johannesburg
South Africa,Gauteng,2198,Johannesburg
South Africa,Gauteng,2200,Sundra
South Africa,Gauteng,2202,Undetermined
South Africa,Gauteng,2210,Delmas
South Africa,Gauteng,2211,Delmas
South Africa,Gauteng,2212,Botleng
South Africa,Gauteng,2213,Delmas
South Africa,Gauteng,2214,Undetermined
South Africa,Mpumalanga,2225,Witbank
South Africa,Mpumalanga,2226,Witbank
South Africa,Mpumalanga,2230,Witbank
South Africa,Mpumalanga,2231,Kriel
South Africa,Mpumalanga,2232,Ogies
South Africa,Mpumalanga,2233,Ogies
South Africa,Mpumalanga,2245,Van dyksdrif
South Africa,Mpumalanga,2250,Blinkpan
South Africa,Mpumalanga,2260,Devon
South Africa,Mpumalanga,2265,Leslie
South Africa,Mpumalanga,2266,Evander
South Africa,Mpumalanga,2267,Impumelelo
South Africa,Mpumalanga,2270,Evander
South Africa,Mpumalanga,2271,Kriel
South Africa,Mpumalanga,2272,Kriel
South Africa,Mpumalanga,2275,Kriel
South Africa,Mpumalanga,2276,Kriel
South Africa,Mpumalanga,2280,Evander
South Africa,Mpumalanga,2284,Evander
South Africa,Mpumalanga,2285,Embalenhle
South Africa,Mpumalanga,2300,Secunda
South Africa,Mpumalanga,2301,Secunda
South Africa,Mpumalanga,2302,Colliery
South Africa,Mpumalanga,2309,Bethal
South Africa,Mpumalanga,2310,Bethal
South Africa,Mpumalanga,2311,Bethal
South Africa,Mpumalanga,2312,Bethal
South Africa,Mpumalanga,2315,Morgenzon
South Africa,Mpumalanga,2320,Bethal
South Africa,Mpumalanga,2329,Top shayela
South Africa,Mpumalanga,2330,Breyten
South Africa,Mpumalanga,2332,Ermelo
South Africa,Mpumalanga,2333,Ermelo
South Africa,Mpumalanga,2334,Ermelo
South Africa,Mpumalanga,2335,Mpuluzi
South Africa,Mpumalanga,2336,Dundonald
South Africa,Mpumalanga,2337,Ermelo
South Africa,Mpumalanga,2339,Ermelo
South Africa,Mpumalanga,2340,Ermelo
South Africa,Mpumalanga,2341,Ermelo
South Africa,Mpumalanga,2350,Ermelo
South Africa,Mpumalanga,2351,Ermelo
South Africa,Mpumalanga,2352,Ermelo
South Africa,Mpumalanga,2353,Ermelo
South Africa,Mpumalanga,2355,Ermelo
South Africa,Mpumalanga,2356,Ermelo
South Africa,Mpumalanga,2357,Ermelo
South Africa,Mpumalanga,2370,Ermelo
South Africa,Mpumalanga,2375,Amsterdam
South Africa,Mpumalanga,2380,Piet retief
South Africa,Mpumalanga,2382,Piet retief
South Africa,Mpumalanga,2383,Piet retief
South Africa,Mpumalanga,2384,Piet retief
South Africa,Mpumalanga,2385,Piet retief
South Africa,Mpumalanga,2386,Piet retief
South Africa,Mpumalanga,2387,Piet retief
South Africa,Mpumalanga,2388,Piet retief
South Africa,Mpumalanga,2389,Piet retief
South Africa,Mpumalanga,2410,Balfour
South Africa,Mpumalanga,2415,Greylingstad
South Africa,Mpumalanga,2420,Grootvlei
South Africa,Mpumalanga,2425,Standerton
South Africa,Mpumalanga,2429,Standerton
South Africa,Mpumalanga,2430,Standerton
South Africa,Mpumalanga,2431,Sakhile
South Africa,Mpumalanga,2432,Standerton
South Africa,Mpumalanga,2433,Standerton
South Africa,Mpumalanga,2434,Standerton
South Africa,Mpumalanga,2435,Standerton
South Africa,Mpumalanga,2436,Standerton
South Africa,Mpumalanga,2465,Volksrust
South Africa,Mpumalanga,2470,Volksrust
South Africa,Mpumalanga,2471,Volksrust
South Africa,Mpumalanga,2476,Undetermined
South Africa,Mpumalanga,2480,Wakkerstroom
South Africa,Mpumalanga,2490,Amersfoort
South Africa,Mpumalanga,2491,Volksrust
South Africa,North West,2495,Carletonville
South Africa,North West,2496,Carletonville
South Africa,North West,2499,Carletonville
South Africa,North West,2500,Carletonville
South Africa,North West,2501,Carletonville
South Africa,North West,2502,Carletonville
South Africa,North West,2503,Carletonville
South Africa,North West,2504,Carletonville
South Africa,North West,2507,Carletonville
South Africa,North West,2508,Carletonville
South Africa,North West,2509,Carletonville
South Africa,North West,2511,Carletonville
South Africa,North West,2513,Carletonville
South Africa,North West,2514,Fochville central
South Africa,North West,2515,Fochville
South Africa,North West,2516,Carletonville
South Africa,North West,2517,Carletonville
South Africa,North West,2518,Boiketlo
South Africa,North West,2519,Carletonville
South Africa,North West,2520,Potchefstroom
South Africa,North West,2521,Potchefstroom
South Africa,North West,2522,Potchefstroom
South Africa,North West,2523,Potchefstroom
South Africa,North West,2524,Potchefstroom
South Africa,North West,2525,Potchefstroom
South Africa,North West,2526,Potchefstroom
South Africa,North West,2527,Potchefstroom
South Africa,North West,2528,Boskop
South Africa,North West,2529,Potchefstroom
South Africa,North West,2530,Potchefstroom
South Africa,North West,2531,Boiphatong ext 6
South Africa,North West,2532,Potchefstroom
South Africa,North West,2533,Potchefstroom
South Africa,North West,2534,Carltonville
South Africa,North West,2535,Potchefstroom
South Africa,North West,2538,Potchefstroom
South Africa,North West,2539,Undetermined
South Africa,North West,2550,Stilfontein
South Africa,North West,2551,Khuma ext 6
South Africa,North West,2552,Stilfontein
South Africa,North West,2553,Stilfontein
South Africa,North West,2554,Stilfontein
South Africa,North West,2556,Stilfontein
South Africa,North West,2560,Stilfontein
South Africa,North West,2562,Khuma ext 6
South Africa,North West,2570,Klerksdorp
South Africa,North West,2571,Klerksdorp
South Africa,North West,2572,Klerksdorp
South Africa,North West,2573,Klerksdorp
South Africa,North West,2574,Jouberton
South Africa,North West,2575,Klerksdorp
South Africa,North West,2576,Klerksdorp
South Africa,North West,2577,Klerksdorp
South Africa,North West,2578,Klerksdorp
South Africa,North West,2599,Undetermined
South Africa,North West,2600,Hartbeesfontein
South Africa,North West,2610,Ottosdal
South Africa,North West,2614,Undetermined
South Africa,North West,2615,Vierfontein
South Africa,North West,2619,Orkney
South Africa,North West,2620,Orkney
South Africa,North West,2621,Orkney
South Africa,North West,2622,Orkney
South Africa,North West,2623,Masakeng
South Africa,North West,2624,Orkney
South Africa,North West,2625,Orkney
South Africa,North West,2626,Orkney
South Africa,North West,2627,Orkney
South Africa,North West,2630,Wolmaransstad
South Africa,North West,2640,Leeudoringstad
South Africa,North West,2650,Makwassie
South Africa,North West,2660,Bloemhof
South Africa,North West,2661,Bloemhof
South Africa,North West,2662,Bloemhof
South Africa,North West,2680,Christiana
South Africa,North West,2710,Ventersdorp
South Africa,North West,2711,Bafokeng
South Africa,North West,2712,Ventersdorp
South Africa,North West,2715,Mareetsane
South Africa,North West,2716,Bathobatho
South Africa,North West,2717,Itsoseng
South Africa,North West,2718,Delareyville
South Africa,North West,2725,Coligny
South Africa,North West,2726,Coligny
South Africa,North West,2727,Coligny
South Africa,North West,2728,Mogasne
South Africa,North West,2729,Gerdau
South Africa,North West,2732,Atamelang
South Africa,North West,2735,Mmabatho
South Africa,North West,2736,Madikwe
South Africa,North West,2737,Montshiwa
South Africa,North West,2738,Mafikeng
South Africa,North West,2739,Radithuso
South Africa,North West,2740,Lichtenburg
South Africa,North West,2741,Lichtenburg
South Africa,North West,2742,Lichtenburg
South Africa,North West,2743,Lichtenburg
South Africa,North West,2744,Itsoseng
South Africa,North West,2745,Mafikeng
South Africa,North West,2746,Mafikeng
South Africa,North West,2747,Delareyville
South Africa,North West,2748,Delareyville
South Africa,North West,2749,Mafikeng
South Africa,North West,2750,Mafikeng
South Africa,North West,2751,Mafikeng
South Africa,North West,2752,Mafikeng
South Africa,North West,2753,Mafikeng
South Africa,North West,2754,Lichtenburg
South Africa,North West,2755,Lichtenburg
South Africa,North West,2756,Miga
South Africa,North West,2757,Masamane
South Africa,North West,2758,Moseki
South Africa,North West,2759,Logageng
South Africa,North West,2760,Sannieshof
South Africa,North West,2761,Loporung
South Africa,North West,2762,Lichtenburg
South Africa,North West,2763,Mafikeng
South Africa,North West,2765,Barberspan
South Africa,North West,2766,Mafikeng
South Africa,North West,2767,Mafikeng
South Africa,North West,2768,Mafikeng
South Africa,North West,2769,Mafikeng
South Africa,North West,2770,Delareyville
South Africa,North West,2771,Delareyville
South Africa,North West,2772,Delareyville
South Africa,North West,2773,Madibogo
South Africa,North West,2774,Madibogo
South Africa,North West,2775,Schweizer-reneke
South Africa,North West,2776,Delareyville
South Africa,North West,2777,Mmabatho
South Africa,North West,2778,Vyrburg
South Africa,North West,2779,Vyrburg
South Africa,North West,2780,Schweizer-reneke
South Africa,North West,2781,Vyrburg
South Africa,North West,2782,Mafikeng
South Africa,North West,2783,Mafikeng
South Africa,North West,2784,Mafikeng
South Africa,North West,2785,Tholo-rapulana
South Africa,North West,2786,Schweizer-reneke
South Africa,North West,2787,Sehume
South Africa,North West,2788,Selemoseng
South Africa,North West,2789,Motsoseng
South Africa,North West,2790,Mmabatho
South Africa,North West,2791,Undetermined
South Africa,North West,2835,Swartruggens
South Africa,North West,2836,Madikwe
South Africa,North West,2838,Madikwe
South Africa,North West,2839,Madikwe
South Africa,North West,2840,Madikwe
South Africa,North West,2841,Madikwe
South Africa,North West,2842,Madikwe
South Africa,North West,2843,Madikwe
South Africa,North West,2844,Madikwe
South Africa,North West,2845,Madikwe
South Africa,North West,2846,Madikwe
South Africa,North West,2847,Madikwe
South Africa,North West,2848,Madikwe
South Africa,North West,2849,Madikwe
South Africa,North West,2850,Groot-marico
South Africa,North West,2851,Zeerust
South Africa,North West,2852,Madikwe
South Africa,North West,2854,Madikwe
South Africa,North West,2855,Mafikeng
South Africa,North West,2857,Mafikeng
South Africa,North West,2858,Mafikeng
South Africa,North West,2859,Dekameelskuil
South Africa,North West,2860,Thandabantu
South Africa,North West,2861,Springbokpan
South Africa,North West,2865,Zeerust
South Africa,North West,2866,Mafikeng
South Africa,North West,2867,Zeerust
South Africa,North West,2868,Dinokana
South Africa,North West,2869,Mokgola
South Africa,North West,2870,Lerato
South Africa,North West,2871,Mabudu
South Africa,North West,2872,Borakalolo
South Africa,North West,2873,Lerato
South Africa,North West,2874,Zeerust
South Africa,North West,2875,Lonely park
South Africa,North West,2876,Zeerust
South Africa,North West,2877,Undetermined
South Africa,North West,2880,Lerato
South Africa,North West,2881,Zeerust
South Africa,North West,2882,Zeerust
South Africa,North West,2883,Zeerust
South Africa,North West,2884,Zeerust
South Africa,North West,2885,Zeerust
South Africa,North West,2886,Zeerust
South Africa,North West,2887,Zeerust
South Africa,North West,2888,Zeerust
South Africa,North West,2889,Zeerust
South Africa,North West,2890,Zeerust
South Africa,North West,2891,Zeerust
South Africa,North West,2895,Zeerust
South Africa,KwaZulu-Natal,2900,Ladysmith
South Africa,KwaZulu-Natal,2920,Wasbank
South Africa,KwaZulu-Natal,2921,Uitval
South Africa,KwaZulu-Natal,2922,Vaalkop
South Africa,KwaZulu-Natal,2930,Glencoe
South Africa,KwaZulu-Natal,2931,Imdumeni
South Africa,KwaZulu-Natal,2940,Newcastle
South Africa,KwaZulu-Natal,2941,Newcastle
South Africa,KwaZulu-Natal,2942,Newcastle
South Africa,KwaZulu-Natal,2944,Newcastle
South Africa,KwaZulu-Natal,2945,Newcastle
South Africa,KwaZulu-Natal,2946,Undetermined
South Africa,KwaZulu-Natal,2950,Newcastle
South Africa,KwaZulu-Natal,2951,Madadeni
South Africa,KwaZulu-Natal,2952,Osizweni
South Africa,KwaZulu-Natal,2953,Newcastle
South Africa,KwaZulu-Natal,2954,Newcastle
South Africa,KwaZulu-Natal,2955,Amajuba park
South Africa,KwaZulu-Natal,2956,Newcastle
South Africa,KwaZulu-Natal,2957,Madadeni
South Africa,KwaZulu-Natal,2958,Newcastle
South Africa,KwaZulu-Natal,2959,Enjabulweni
South Africa,KwaZulu-Natal,2960,Sizakancane
South Africa,KwaZulu-Natal,2970,Memel
South Africa,KwaZulu-Natal,2980,Utrecht
South Africa,KwaZulu-Natal,3000,Dundee
South Africa,KwaZulu-Natal,3002,Vryheid
South Africa,KwaZulu-Natal,3003,Dundee
South Africa,KwaZulu-Natal,3004,Dundee
South Africa,KwaZulu-Natal,3005,Nqutu
South Africa,KwaZulu-Natal,3006,Dundee
South Africa,KwaZulu-Natal,3007,Nqutu
South Africa,KwaZulu-Natal,3010,Tugela ferry
South Africa,KwaZulu-Natal,3011,Pomeroy
South Africa,KwaZulu-Natal,3016,Dundee
South Africa,KwaZulu-Natal,3017,Dundee
South Africa,KwaZulu-Natal,3019,Manzana
South Africa,KwaZulu-Natal,3020,Pomeroy
South Africa,KwaZulu-Natal,3022,Sithembile
South Africa,KwaZulu-Natal,3024,Blood river
South Africa,KwaZulu-Natal,3080,Dannhause
South Africa,KwaZulu-Natal,3081,Dundee
South Africa,KwaZulu-Natal,3082,Newcastle
South Africa,KwaZulu-Natal,3100,Vryheid
South Africa,KwaZulu-Natal,3101,Emondlo
South Africa,KwaZulu-Natal,3102,Vryheid
South Africa,KwaZulu-Natal,3103,Vryheid
South Africa,KwaZulu-Natal,3105,Vryheid
South Africa,KwaZulu-Natal,3106,Vryheid
South Africa,KwaZulu-Natal,3107,Vryheid
South Africa,KwaZulu-Natal,3109,Zenzele
South Africa,KwaZulu-Natal,3111,Vryheid
South Africa,KwaZulu-Natal,3112,Mawk
South Africa,KwaZulu-Natal,3114,Vryheid
South Africa,KwaZulu-Natal,3115,Vryheid
South Africa,KwaZulu-Natal,3116,Vryheid
South Africa,KwaZulu-Natal,3120,Vryheid
South Africa,KwaZulu-Natal,3135,Nqutu
South Africa,KwaZulu-Natal,3137,Nqutu
South Africa,KwaZulu-Natal,3138,Mahlafuna
South Africa,KwaZulu-Natal,3145,Hlobane
South Africa,KwaZulu-Natal,3150,Vryheid
South Africa,KwaZulu-Natal,3151,Ncotshane
South Africa,KwaZulu-Natal,3160,Pongola
South Africa,KwaZulu-Natal,3170,Pongola
South Africa,KwaZulu-Natal,3171,Pongola
South Africa,KwaZulu-Natal,3180,Paulpietersburg
South Africa,KwaZulu-Natal,3182,Dumbe
South Africa,KwaZulu-Natal,3183,Vryheid
South Africa,KwaZulu-Natal,3184,Vryheid
South Africa,KwaZulu-Natal,3185,Paulpietersburg
South Africa,KwaZulu-Natal,3199,Maqongqo
South Africa,KwaZulu-Natal,3200,Pietermaritzburg
South Africa,KwaZulu-Natal,3201,Edendale
South Africa,KwaZulu-Natal,3202,Pietermaritzburg
South Africa,KwaZulu-Natal,3203,Pietermaritzburg
South Africa,KwaZulu-Natal,3204,Edendale
South Africa,KwaZulu-Natal,3205,Pietermaritzburg
South Africa,KwaZulu-Natal,3206,Pietermaritzburg
South Africa,KwaZulu-Natal,3207,Pietermaritzburg
South Africa,KwaZulu-Natal,3208,Pietermaritzburg
South Africa,KwaZulu-Natal,3209,Pietermaritzburg
South Africa,KwaZulu-Natal,3210,Pietermaritzburg
South Africa,KwaZulu-Natal,3211,Pietermaritzburg
South Africa,KwaZulu-Natal,3213,Pietermaritzburg
South Africa,KwaZulu-Natal,3214,Pietermaritzburg
South Africa,KwaZulu-Natal,3215,Pietermaritzburg
South Africa,KwaZulu-Natal,3216,Pietermaritzburg
South Africa,KwaZulu-Natal,3217,Edendale
South Africa,KwaZulu-Natal,3218,Edendale
South Africa,KwaZulu-Natal,3219,Pietermaritzburg
South Africa,KwaZulu-Natal,3220,Pietermaritzburg
South Africa,KwaZulu-Natal,3221,Pietermaritzburg
South Africa,KwaZulu-Natal,3222,Mbiyo
South Africa,KwaZulu-Natal,3223,Nkwazi
South Africa,KwaZulu-Natal,3224,Howick
South Africa,KwaZulu-Natal,3225,Pietermaritzburg
South Africa,KwaZulu-Natal,3226,Elandskop
South Africa,KwaZulu-Natal,3227,Impendle
South Africa,KwaZulu-Natal,3228,Howick
South Africa,KwaZulu-Natal,3229,Slangspruit
South Africa,KwaZulu-Natal,3230,Dalton
South Africa,KwaZulu-Natal,3231,Chase valley
South Africa,KwaZulu-Natal,3232,Mbeka
South Africa,KwaZulu-Natal,3233,Greytown
South Africa,KwaZulu-Natal,3234,Wartburg
South Africa,KwaZulu-Natal,3235,Pietermaritzburg
South Africa,KwaZulu-Natal,3236,Dalton
South Africa,KwaZulu-Natal,3237,Donnybrook
South Africa,KwaZulu-Natal,3238,Dalton
South Africa,KwaZulu-Natal,3239,Umzimkulu
South Africa,KwaZulu-Natal,3241,Donnybrook
South Africa,KwaZulu-Natal,3242,Dalton
South Africa,KwaZulu-Natal,3243,Hoha
South Africa,KwaZulu-Natal,3244,Bulwer
South Africa,KwaZulu-Natal,3245,Pietermaritzburg
South Africa,KwaZulu-Natal,3246,Howick
South Africa,KwaZulu-Natal,3247,Howick
South Africa,KwaZulu-Natal,3248,Howick
South Africa,KwaZulu-Natal,3249,Greytown
South Africa,KwaZulu-Natal,3250,Greytown
South Africa,KwaZulu-Natal,3251,Greytown
South Africa,KwaZulu-Natal,3252,Scottsville
South Africa,KwaZulu-Natal,3254,Pietermaritzburg
South Africa,KwaZulu-Natal,3255,Howick
South Africa,KwaZulu-Natal,3256,Himeville
South Africa,KwaZulu-Natal,3257,Underberg
South Africa,KwaZulu-Natal,3258,Greytown
South Africa,KwaZulu-Natal,3259,Dalton
South Africa,KwaZulu-Natal,3260,Howick
South Africa,KwaZulu-Natal,3261,Ozwatini
South Africa,KwaZulu-Natal,3262,Greytown
South Africa,KwaZulu-Natal,3263,Creighton
South Africa,KwaZulu-Natal,3264,Hemuhemu
South Africa,KwaZulu-Natal,3265,Howick
South Africa,KwaZulu-Natal,3266,Umzinto
South Africa,KwaZulu-Natal,3267,Howick
South Africa,KwaZulu-Natal,3268,Greytown
South Africa,KwaZulu-Natal,3269,Kranskop
South Africa,KwaZulu-Natal,3270,Howick
South Africa,KwaZulu-Natal,3271,Kranskop
South Africa,KwaZulu-Natal,3272,Kranskop
South Africa,KwaZulu-Natal,3273,Kranskop
South Africa,KwaZulu-Natal,3274,Kranskop
South Africa,KwaZulu-Natal,3275,Howick
South Africa,KwaZulu-Natal,3276,Ixopo
South Africa,KwaZulu-Natal,3277,Kranskop
South Africa,KwaZulu-Natal,3278,Ncalu
South Africa,KwaZulu-Natal,3280,Estcourt
South Africa,KwaZulu-Natal,3282,Kranskop
South Africa,KwaZulu-Natal,3283,Stepmore
South Africa,KwaZulu-Natal,3284,Lourdes
South Africa,KwaZulu-Natal,3285,Kwasizabantu
South Africa,KwaZulu-Natal,3286,Kranskop
South Africa,KwaZulu-Natal,3287,Kranskop
South Africa,KwaZulu-Natal,3288,Glen garry
South Africa,KwaZulu-Natal,3290,Howick
South Africa,KwaZulu-Natal,3291,Howick
South Africa,KwaZulu-Natal,3292,Pietermaritzburg
South Africa,KwaZulu-Natal,3293,Pietermaritzburg
South Africa,KwaZulu-Natal,3294,Pietermaritzburg
South Africa,KwaZulu-Natal,3295,Pietermaritzburg
South Africa,KwaZulu-Natal,3296,Pietermaritzburg
South Africa,KwaZulu-Natal,3297,Umzimkhulu
South Africa,KwaZulu-Natal,3298,Umzimkulu
South Africa,KwaZulu-Natal,3299,Howick
South Africa,KwaZulu-Natal,3300,Estcourt
South Africa,KwaZulu-Natal,3301,Estcourt
South Africa,KwaZulu-Natal,3302,Howick
South Africa,KwaZulu-Natal,3303,Howick
South Africa,KwaZulu-Natal,3304,Umzimkulu
South Africa,KwaZulu-Natal,3305,Highflats
South Africa,KwaZulu-Natal,3306,Highflats
South Africa,KwaZulu-Natal,3307,Umzimkulu
South Africa,KwaZulu-Natal,3308,Merrivale
South Africa,KwaZulu-Natal,3309,Mphophomeni
South Africa,KwaZulu-Natal,3310,Estcourt
South Africa,KwaZulu-Natal,3312,Estcourt
South Africa,KwaZulu-Natal,3313,Estcourt
South Africa,KwaZulu-Natal,3314,Phungashe
South Africa,KwaZulu-Natal,3325,Estcourt
South Africa,KwaZulu-Natal,3330,Estcourt
South Africa,KwaZulu-Natal,3331,Winterton
South Africa,KwaZulu-Natal,3340,Winterton
South Africa,KwaZulu-Natal,3341,Winterton
South Africa,KwaZulu-Natal,3342,Winterton
South Africa,KwaZulu-Natal,3343,Emmaus
South Africa,KwaZulu-Natal,3350,Bergville
South Africa,KwaZulu-Natal,3351,Bergville
South Africa,KwaZulu-Natal,3352,Bergville
South Africa,KwaZulu-Natal,3354,Bergville
South Africa,KwaZulu-Natal,3360,Colenso
South Africa,KwaZulu-Natal,3370,Ladysmith
South Africa,KwaZulu-Natal,3371,Ladysmith
South Africa,KwaZulu-Natal,3372,Harrismith
South Africa,KwaZulu-Natal,3373,Steadville
South Africa,KwaZulu-Natal,3374,Ladysmith
South Africa,KwaZulu-Natal,3375,Ladysmith
South Africa,KwaZulu-Natal,3377,Ladysmith
South Africa,KwaZulu-Natal,3378,Ladysmith
South Africa,KwaZulu-Natal,3380,Ladysmith
South Africa,KwaZulu-Natal,3381,Ezakheni
South Africa,KwaZulu-Natal,3382,Ladysmith
South Africa,KwaZulu-Natal,3383,Ekuvukeni
South Africa,KwaZulu-Natal,3384,Ladysmith
South Africa,KwaZulu-Natal,3385,Undetermined
South Africa,KwaZulu-Natal,3500,Greytown
South Africa,KwaZulu-Natal,3741,Nkumane
South Africa,KwaZulu-Natal,3742,Umkomaas valley
South Africa,KwaZulu-Natal,3800,Gingindlovu
South Africa,KwaZulu-Natal,3801,Amatikulu
South Africa,KwaZulu-Natal,3802,Mandeni
South Africa,KwaZulu-Natal,3803,Gingindlovu
South Africa,KwaZulu-Natal,3804,Gingindlovu
South Africa,KwaZulu-Natal,3805,Emoyeni
South Africa,KwaZulu-Natal,3806,Gingindlovu
South Africa,KwaZulu-Natal,3807,Dokodweni
South Africa,KwaZulu-Natal,3808,Masundwini
South Africa,KwaZulu-Natal,3814,Eshowe
South Africa,KwaZulu-Natal,3815,Eshowe
South Africa,KwaZulu-Natal,3816,Eshowe
South Africa,KwaZulu-Natal,3817,Eshowe
South Africa,KwaZulu-Natal,3818,Gingindlovu
South Africa,KwaZulu-Natal,3820,Eshowe
South Africa,KwaZulu-Natal,3821,Ezimpohlo
South Africa,KwaZulu-Natal,3822,Mabogweni
South Africa,KwaZulu-Natal,3823,Catherine booth
South Africa,KwaZulu-Natal,3830,Eshowe
South Africa,KwaZulu-Natal,3835,Melmoth
South Africa,KwaZulu-Natal,3837,Melmoth
South Africa,KwaZulu-Natal,3838,Ulundi
South Africa,KwaZulu-Natal,3850,Eshowe
South Africa,KwaZulu-Natal,3855,Nkandla
South Africa,KwaZulu-Natal,3856,Mahlabatini
South Africa,KwaZulu-Natal,3857,Melmoth
South Africa,KwaZulu-Natal,3858,Nkandla
South Africa,KwaZulu-Natal,3859,Nkandla
South Africa,KwaZulu-Natal,3865,Mahlabatini
South Africa,KwaZulu-Natal,3867,Mtunzini
South Africa,KwaZulu-Natal,3871,Ceza
South Africa,KwaZulu-Natal,3872,Qhudeni
South Africa,KwaZulu-Natal,3873,Nhlwathi
South Africa,KwaZulu-Natal,3874,Nomdiya
South Africa,KwaZulu-Natal,3875,Empangeni
South Africa,KwaZulu-Natal,3879,Empangeni
South Africa,KwaZulu-Natal,3880,Empangeni
South Africa,KwaZulu-Natal,3881,Empangeni
South Africa,KwaZulu-Natal,3882,Empangeni
South Africa,KwaZulu-Natal,3883,Dukuduku
South Africa,KwaZulu-Natal,3884,Empangeni
South Africa,KwaZulu-Natal,3885,Empumeni
South Africa,KwaZulu-Natal,3886,Kwadlangezwa
South Africa,KwaZulu-Natal,3887,Esikhawini
South Africa,KwaZulu-Natal,3888,Mahihashini
South Africa,KwaZulu-Natal,3889,Dondotha
South Africa,KwaZulu-Natal,3890,Undetermined
South Africa,KwaZulu-Natal,3900,Empangeni
South Africa,KwaZulu-Natal,3901,Meer en see
South Africa,KwaZulu-Natal,3902,Richards bay
South Africa,KwaZulu-Natal,3903,Richards bay
South Africa,KwaZulu-Natal,3904,Richards bay
South Africa,KwaZulu-Natal,3905,Enyokeni
South Africa,KwaZulu-Natal,3910,Empangeni
South Africa,KwaZulu-Natal,3915,Kwambonambi
South Africa,KwaZulu-Natal,3920,Empangeni
South Africa,KwaZulu-Natal,3925,Mtubatuba
South Africa,KwaZulu-Natal,3930,Mtubatuba
South Africa,KwaZulu-Natal,3934,Nongoma
South Africa,KwaZulu-Natal,3935,Mtubatuba
South Africa,KwaZulu-Natal,3936,Mtubatuba
South Africa,KwaZulu-Natal,3937,Hlabisa
South Africa,KwaZulu-Natal,3939,Hlalanathi
South Africa,KwaZulu-Natal,3940,Mtubatuba
South Africa,KwaZulu-Natal,3941,Gedleza
South Africa,KwaZulu-Natal,3942,Ezibayeni
South Africa,KwaZulu-Natal,3952,Msebe
South Africa,KwaZulu-Natal,3953,Bhangonoma
South Africa,KwaZulu-Natal,3960,Hluhluwe
South Africa,KwaZulu-Natal,3964,Ingwavuma
South Africa,KwaZulu-Natal,3965,Empangeni
South Africa,KwaZulu-Natal,3966,Mkuze
South Africa,KwaZulu-Natal,3967,Mkuze
South Africa,KwaZulu-Natal,3968,Ingwavuma
South Africa,KwaZulu-Natal,3969,Jozini
South Africa,KwaZulu-Natal,3970,Empangeni
South Africa,KwaZulu-Natal,3972,Mkuze
South Africa,KwaZulu-Natal,3973,Kwangwanase
South Africa,KwaZulu-Natal,3974,Mbazwana
South Africa,KwaZulu-Natal,3975,Mkuze
South Africa,KwaZulu-Natal,3976,Mkuze
South Africa,KwaZulu-Natal,3977,Ingwavuma
South Africa,KwaZulu-Natal,3978,Kwangkwanase
South Africa,KwaZulu-Natal,3979,Mkuze
South Africa,KwaZulu-Natal,3980,Mkuze
South Africa,KwaZulu-Natal,3981,Ulwazi
South Africa,KwaZulu-Natal,3982,Jozini
South Africa,KwaZulu-Natal,3983,Jozini
South Africa,KwaZulu-Natal,3984,Jozini
South Africa,KwaZulu-Natal,3985,Jozini
South Africa,KwaZulu-Natal,3986,Jozini
South Africa,KwaZulu-Natal,3987,Jozini
South Africa,KwaZulu-Natal,3988,Mbazwana
South Africa,KwaZulu-Natal,3989,Jozini
South Africa,KwaZulu-Natal,3990,Golela
South Africa,KwaZulu-Natal,3991,Mlamula
South Africa,KwaZulu-Natal,3992,Kwaskhemelele
South Africa,KwaZulu-Natal,3993,Bhambanana
South Africa,KwaZulu-Natal,3994,Phelandaba
South Africa,KwaZulu-Natal,4121,Undetermined
South Africa,KwaZulu-Natal,4180,Scottburgh
South Africa,KwaZulu-Natal,4181,Scottburgh
South Africa,KwaZulu-Natal,4182,Scottburgh
South Africa,KwaZulu-Natal,4183,Scottburgh
South Africa,KwaZulu-Natal,4184,Pennington
South Africa,KwaZulu-Natal,4185,Ifafa beach
South Africa,KwaZulu-Natal,4186,Scottburgh
South Africa,KwaZulu-Natal,4187,Qwabe
South Africa,KwaZulu-Natal,4191,Mbalenhle
South Africa,KwaZulu-Natal,4192,Undetermined
South Africa,KwaZulu-Natal,4200,Handinagi
South Africa,KwaZulu-Natal,4201,Umzinto
South Africa,KwaZulu-Natal,4202,Umzinto
South Africa,KwaZulu-Natal,4204,Umzinto
South Africa,KwaZulu-Natal,4206,Sangcwaba
South Africa,KwaZulu-Natal,4207,Umzinto
South Africa,KwaZulu-Natal,4215,Sezela
South Africa,KwaZulu-Natal,4216,Mdasha
South Africa,KwaZulu-Natal,4220,Hibberdene
South Africa,KwaZulu-Natal,4221,Hibberdene
South Africa,KwaZulu-Natal,4225,Umzumbe
South Africa,KwaZulu-Natal,4226,Port shepstone
South Africa,KwaZulu-Natal,4227,Umzumbe
South Africa,KwaZulu-Natal,4230,Anerley
South Africa,KwaZulu-Natal,4235,Umtentweni
South Africa,KwaZulu-Natal,4240,Port shepstone
South Africa,KwaZulu-Natal,4241,Port shepstone
South Africa,KwaZulu-Natal,4242,Ndwedwe
South Africa,KwaZulu-Natal,4243,Port shepstone
South Africa,KwaZulu-Natal,4244,Paddock
South Africa,KwaZulu-Natal,4246,Mehlomnyama
South Africa,KwaZulu-Natal,4247,Port shepstone
South Africa,KwaZulu-Natal,4249,Port shepstone
South Africa,KwaZulu-Natal,4250,Port shepstone
South Africa,KwaZulu-Natal,4251,Port shepstone
South Africa,KwaZulu-Natal,4252,Marburg
South Africa,KwaZulu-Natal,4253,Boboyi
South Africa,KwaZulu-Natal,4254,Mcosela
South Africa,KwaZulu-Natal,4255,Nodalane
South Africa,KwaZulu-Natal,4256,Manthinta
South Africa,Eastern Cape,4260,Izingolweni
South Africa,KwaZulu-Natal,4261,Izingolweni
South Africa,KwaZulu-Natal,4265,Shelly beach
South Africa,KwaZulu-Natal,4270,Uvongo
South Africa,KwaZulu-Natal,4275,Margate
South Africa,KwaZulu-Natal,4276,Manaba beach
South Africa,KwaZulu-Natal,4277,Margate
South Africa,KwaZulu-Natal,4278,Margate
South Africa,KwaZulu-Natal,4280,Margate
South Africa,KwaZulu-Natal,4281,Margate
South Africa,KwaZulu-Natal,4285,Ramsgate
South Africa,KwaZulu-Natal,4286,Kwashaka
South Africa,KwaZulu-Natal,4295,Port edward
South Africa,KwaZulu-Natal,4301,Mount edgecombe
South Africa,KwaZulu-Natal,4339,Verulam
South Africa,KwaZulu-Natal,4340,Verulam
South Africa,KwaZulu-Natal,4341,Ndwedwe
South Africa,KwaZulu-Natal,4342,Ndwedwe
South Africa,KwaZulu-Natal,4343,Verulam
South Africa,KwaZulu-Natal,4344,Verulam
South Africa,KwaZulu-Natal,4348,Ondini
South Africa,KwaZulu-Natal,4349,Ezindlovini
South Africa,KwaZulu-Natal,4363,Thembalihle
South Africa,KwaZulu-Natal,4378,Undetermined
South Africa,KwaZulu-Natal,4380,Maidstone
South Africa,KwaZulu-Natal,4381,Shakashead
South Africa,KwaZulu-Natal,4390,Compensations
South Africa,KwaZulu-Natal,4391,Umhlali
South Africa,KwaZulu-Natal,4399,Desainagar
South Africa,KwaZulu-Natal,4400,Hambanathi heights
South Africa,KwaZulu-Natal,4405,Desainagar
South Africa,KwaZulu-Natal,4406,Maidstone
South Africa,KwaZulu-Natal,4418,Zimbali
South Africa,KwaZulu-Natal,4420,Sheffield beach
South Africa,KwaZulu-Natal,4422,Zimbali lodge
South Africa,KwaZulu-Natal,4430,Shakaskraal
South Africa,KwaZulu-Natal,4431,Etete
South Africa,KwaZulu-Natal,4444,Undetermined
South Africa,KwaZulu-Natal,4449,Kwadukuza
South Africa,KwaZulu-Natal,4450,Kwadukuza
South Africa,KwaZulu-Natal,4458,Sunbury
South Africa,KwaZulu-Natal,4470,Mapumulo
South Africa,KwaZulu-Natal,4480,Darnall
South Africa,KwaZulu-Natal,4490,Mandeni
South Africa,KwaZulu-Natal,4491,Mandeni
South Africa,KwaZulu-Natal,4492,Mandeni
South Africa,KwaZulu-Natal,4493,Wangu
South Africa,KwaZulu-Natal,4601,Undetermined
South Africa,KwaZulu-Natal,4642,Port shepstone
South Africa,KwaZulu-Natal,4643,Harding
South Africa,KwaZulu-Natal,4680,Harding
South Africa,KwaZulu-Natal,4681,Harding
South Africa,KwaZulu-Natal,4682,Kwamachi
South Africa,KwaZulu-Natal,4683,Harding
South Africa,KwaZulu-Natal,4684,Harding
South Africa,KwaZulu-Natal,4685,Kokstad
South Africa,KwaZulu-Natal,4686,Stafford's post
South Africa,KwaZulu-Natal,4687,Harding
South Africa,KwaZulu-Natal,4688,Harding
South Africa,KwaZulu-Natal,4689,Harding
South Africa,KwaZulu-Natal,4690,Kwabhobhi
South Africa,KwaZulu-Natal,4691,Kwambotho
South Africa,KwaZulu-Natal,4693,Kokstad
South Africa,KwaZulu-Natal,4700,Kokstad
South Africa,KwaZulu-Natal,4706,Kokstad
South Africa,KwaZulu-Natal,4710,Kokstad
South Africa,KwaZulu-Natal,4720,Cedarville
South Africa,KwaZulu-Natal,4730,Matatiele
South Africa,KwaZulu-Natal,4731,Matatiele
South Africa,KwaZulu-Natal,4735,Mount ayliff
South Africa,KwaZulu-Natal,4736,Mount ayliff
South Africa,KwaZulu-Natal,4737,Mount ayliff
South Africa,KwaZulu-Natal,4738,Mount ayliff
South Africa,KwaZulu-Natal,4740,Maluti
South Africa,KwaZulu-Natal,4741,Ngonyameni
South Africa,KwaZulu-Natal,4742,Maluti
South Africa,KwaZulu-Natal,4743,Queen's mercy
South Africa,KwaZulu-Natal,4750,Magadla
South Africa,KwaZulu-Natal,4751,Magadla
South Africa,KwaZulu-Natal,4752,Magadla
South Africa,KwaZulu-Natal,4753,Magadla
South Africa,KwaZulu-Natal,4770,Mount fletcher
South Africa,KwaZulu-Natal,4771,Mount fletcher
South Africa,KwaZulu-Natal,4772,Mount fletcher
South Africa,KwaZulu-Natal,4773,Mount fletcher
South Africa,KwaZulu-Natal,4774,Mount fletcher
South Africa,KwaZulu-Natal,4776,Mount fletcher
South Africa,KwaZulu-Natal,4777,Mount fletcher
South Africa,KwaZulu-Natal,4778,Mount fletcher
South Africa,KwaZulu-Natal,4780,Mount fletcher
South Africa,KwaZulu-Natal,4781,Mount fletcher
South Africa,KwaZulu-Natal,4786,Mount fletcher
South Africa,KwaZulu-Natal,4788,Queen's mercy
South Africa,KwaZulu-Natal,4789,Mount fletcher
South Africa,KwaZulu-Natal,4790,Mount fletcher
South Africa,Eastern Cape,4800,Bizana
South Africa,Eastern Cape,4801,Redoubt
South Africa,Eastern Cape,4802,Bizana
South Africa,Eastern Cape,4803,Bizana
South Africa,Eastern Cape,4804,Bizana
South Africa,Eastern Cape,4810,Flagstaff
South Africa,Eastern Cape,4811,Flagstaff
South Africa,Eastern Cape,4812,Flagstaff
South Africa,Eastern Cape,4813,Flagstaff
South Africa,Eastern Cape,4814,Flagstaff
South Africa,Eastern Cape,4816,Ntabankulu
South Africa,Eastern Cape,4820,Lusikisiki
South Africa,Eastern Cape,4821,Dumabenshiya
South Africa,Eastern Cape,4822,Lusikisiki
South Africa,Eastern Cape,4824,Lusikisiki
South Africa,Eastern Cape,4825,Lusikisiki
South Africa,Eastern Cape,4826,Tshonya
South Africa,Eastern Cape,4827,Mgojweni
South Africa,Eastern Cape,4828,Lusikisiki
South Africa,Eastern Cape,4920,Kei road
South Africa,Eastern Cape,4930,Stutterheim
South Africa,Eastern Cape,4931,King william's town
South Africa,Eastern Cape,4932,Jersey valley
South Africa,Eastern Cape,4933,Nonkululeko
South Africa,Eastern Cape,4934,Stutterheim
South Africa,Eastern Cape,4935,Stutterheim
South Africa,Eastern Cape,4950,Komga
South Africa,Eastern Cape,4960,Butterworth
South Africa,Eastern Cape,4961,Butterworth
South Africa,Eastern Cape,4962,Ndabakazi
South Africa,Eastern Cape,4964,Ndabakazi
South Africa,Eastern Cape,4968,Butterworth
South Africa,Eastern Cape,4980,Kentani
South Africa,Eastern Cape,4982,Kentani
South Africa,Eastern Cape,4990,Ngqamakhwe
South Africa,Eastern Cape,4991,Nqamakwe
South Africa,Eastern Cape,4992,Nqamakwe
South Africa,Eastern Cape,4993,California
South Africa,Eastern Cape,5000,Dutywa
South Africa,Eastern Cape,5002,Idutywa
South Africa,Eastern Cape,5003,Idutywa
South Africa,Eastern Cape,5004,Idutywa
South Africa,Eastern Cape,5005,Idutywa
South Africa,Eastern Cape,5006,Idutywa
South Africa,Eastern Cape,5007,Idutywa
South Africa,Eastern Cape,5008,Mjanyana
South Africa,Eastern Cape,5009,Undetermined
South Africa,Eastern Cape,5010,Idutywa
South Africa,Eastern Cape,5011,Idutywa
South Africa,Eastern Cape,5012,Idutywa
South Africa,Eastern Cape,5013,Butterworth
South Africa,Eastern Cape,5014,Idutywa
South Africa,Eastern Cape,5015,Idutywa
South Africa,Eastern Cape,5016,Idutywa
South Africa,Eastern Cape,5017,Idutywa
South Africa,Eastern Cape,5018,Idutywa
South Africa,Eastern Cape,5019,Idutywa
South Africa,Eastern Cape,5021,Idutywa
South Africa,Eastern Cape,5024,Clarkebury
South Africa,Eastern Cape,5026,Clarkebury
South Africa,Eastern Cape,5035,Umtata
South Africa,Eastern Cape,5040,Willowvale
South Africa,Eastern Cape,5041,Willowvale
South Africa,Eastern Cape,5042,Willowvale
South Africa,Eastern Cape,5043,Willowvale
South Africa,Eastern Cape,5050,Engcobo
South Africa,Eastern Cape,5051,Engcobo
South Africa,Eastern Cape,5052,Engcobo
South Africa,Eastern Cape,5054,Engcobo
South Africa,Eastern Cape,5055,Engcobo
South Africa,Eastern Cape,5056,Engcobo
South Africa,Eastern Cape,5057,Engcobo
South Africa,Eastern Cape,5058,Engcobo
South Africa,Eastern Cape,5059,Qitsi
South Africa,Eastern Cape,5070,Elliotdale
South Africa,Eastern Cape,5072,Elliotdale
South Africa,Eastern Cape,5073,Elliotdale
South Africa,Eastern Cape,5075,Elliotdale
South Africa,Eastern Cape,5079,Mqanduli
South Africa,Eastern Cape,5080,Mqanduli
South Africa,Eastern Cape,5081,Mqanduli
South Africa,Eastern Cape,5082,Mqanduli
South Africa,Eastern Cape,5083,Mqanduli
South Africa,Eastern Cape,5084,Mqanduli
South Africa,Eastern Cape,5085,Mqanduli
South Africa,Eastern Cape,5086,Mount frere
South Africa,Eastern Cape,5087,Mount frere
South Africa,Eastern Cape,5088,Mount frere
South Africa,Eastern Cape,5089,Mount frere
South Africa,Eastern Cape,5090,Mount frere
South Africa,Eastern Cape,5091,Mount frere
South Africa,Eastern Cape,5092,Mount frere
South Africa,Eastern Cape,5093,Mount frere
South Africa,Eastern Cape,5094,Mount frere
South Africa,Eastern Cape,5095,Mount frere
South Africa,Eastern Cape,5096,Mount frere
South Africa,Eastern Cape,5097,Mount frere
South Africa,Eastern Cape,5099,Mthatha
South Africa,Eastern Cape,5100,Mthatha
South Africa,Eastern Cape,5101,Umtata
South Africa,Eastern Cape,5102,Umtata
South Africa,Eastern Cape,5103,Umtata
South Africa,Eastern Cape,5104,Umtata
South Africa,Eastern Cape,5105,Umtata
South Africa,Eastern Cape,5106,Umtata
South Africa,Eastern Cape,5107,Umtata
South Africa,Eastern Cape,5108,Umtata
South Africa,Eastern Cape,5109,Umtata
South Africa,Eastern Cape,5111,Umtata
South Africa,Eastern Cape,5112,Mahlungulu
South Africa,Eastern Cape,5113,Umtata
South Africa,Eastern Cape,5114,Umtata
South Africa,Eastern Cape,5115,Umtata
South Africa,Eastern Cape,5116,Umtata
South Africa,Eastern Cape,5117,Umtata
South Africa,Eastern Cape,5118,Elliotdale
South Africa,Eastern Cape,5119,Nqutyana
South Africa,Eastern Cape,5120,Port st johns
South Africa,Eastern Cape,5121,Port st johns
South Africa,Eastern Cape,5122,Port st johns
South Africa,Eastern Cape,5123,Ntsimbini
South Africa,Eastern Cape,5124,Ludome
South Africa,Eastern Cape,5127,Umtata
South Africa,Eastern Cape,5128,Phantsi kwentaba
South Africa,Eastern Cape,5129,Mqanduli
South Africa,Eastern Cape,5130,Tabankulu
South Africa,Eastern Cape,5131,Tabankulu
South Africa,Eastern Cape,5132,Tabankulu
South Africa,Eastern Cape,5133,Masincedane
South Africa,Eastern Cape,5134,Tabankulu
South Africa,Eastern Cape,5135,Tabankulu
South Africa,Eastern Cape,5136,Tabankulu
South Africa,Eastern Cape,5137,Ngozi
South Africa,Eastern Cape,5138,Bagqozini
South Africa,Eastern Cape,5139,Mnceba
South Africa,Eastern Cape,5140,Ngqeleni
South Africa,Eastern Cape,5141,Ngqeleni
South Africa,Eastern Cape,5142,Kwanyana
South Africa,Eastern Cape,5150,Ngqeleni
South Africa,Eastern Cape,5160,Libode
South Africa,Eastern Cape,5161,Libode
South Africa,Eastern Cape,5162,Libode
South Africa,Eastern Cape,5163,Libode
South Africa,Eastern Cape,5170,Tsolo
South Africa,Eastern Cape,5171,Tsolo
South Africa,Eastern Cape,5172,Sidwadweni
South Africa,Eastern Cape,5173,Nomvalo
South Africa,Eastern Cape,5174,Tsolo
South Africa,Eastern Cape,5180,Qumbu
South Africa,Eastern Cape,5181,Qumbu
South Africa,Eastern Cape,5182,Qumbu
South Africa,Eastern Cape,5183,Qumbu
South Africa,Eastern Cape,5184,Qumbu
South Africa,Eastern Cape,5185,Qumbu
South Africa,Eastern Cape,5186,Qumbu
South Africa,Eastern Cape,5187,Qumbu
South Africa,Eastern Cape,5188,Qumbu
South Africa,Eastern Cape,5189,Qumbu
South Africa,Eastern Cape,5190,Qumbu
South Africa,Eastern Cape,5191,Tyeni
South Africa,Eastern Cape,5200,East london
South Africa,Eastern Cape,5201,East london
South Africa,Eastern Cape,5204,East london
South Africa,Eastern Cape,5205,East london
South Africa,Eastern Cape,5206,East london
South Africa,Eastern Cape,5207,East london
South Africa,Eastern Cape,5208,East london
South Africa,Eastern Cape,5209,East london
South Africa,Eastern Cape,5210,East london
South Africa,Eastern Cape,5211,East london
South Africa,Eastern Cape,5212,East london
South Africa,Eastern Cape,5213,East london
South Africa,Eastern Cape,5214,East london
South Africa,Eastern Cape,5216,East london
South Africa,Eastern Cape,5217,East london
South Africa,Eastern Cape,5218,East london
South Africa,Eastern Cape,5219,East london
South Africa,Eastern Cape,5220,East london
South Africa,Eastern Cape,5221,Mdantsane
South Africa,Eastern Cape,5222,Igoda
South Africa,Eastern Cape,5241,East london
South Africa,Eastern Cape,5247,Cambridge
South Africa,Eastern Cape,5252,East london
South Africa,Eastern Cape,5253,East london
South Africa,Eastern Cape,5256,Gonubie
South Africa,Eastern Cape,5257,Gonubie
South Africa,Eastern Cape,5258,Gonubie
South Africa,Eastern Cape,5259,East london
South Africa,Eastern Cape,5260,East london
South Africa,Eastern Cape,5264,East london
South Africa,Eastern Cape,5265,East london
South Africa,Eastern Cape,5272,East london
South Africa,Eastern Cape,5275,East london
South Africa,Eastern Cape,5280,Macleantown
South Africa,Eastern Cape,5284,East london
South Africa,Eastern Cape,5288,East london
South Africa,Eastern Cape,5292,East london
South Africa,Eastern Cape,5310,Cathcart
South Africa,Eastern Cape,5311,Thomas river
South Africa,Eastern Cape,5319,Queenstown
South Africa,Eastern Cape,5320,Queenstown
South Africa,Eastern Cape,5321,Queenstown
South Africa,Eastern Cape,5322,Queenstown
South Africa,Eastern Cape,5323,Tylden
South Africa,Eastern Cape,5325,Bholothwa
South Africa,Eastern Cape,5326,Ezibeleni
South Africa,Eastern Cape,5327,Qamata
South Africa,Eastern Cape,5328,Queenstown
South Africa,Eastern Cape,5329,Cofimvaba
South Africa,Eastern Cape,5330,Queenstown
South Africa,Eastern Cape,5331,Cofimvaba
South Africa,Eastern Cape,5332,Lanti
South Africa,Eastern Cape,5341,Lady frere
South Africa,Eastern Cape,5360,Whittlesea
South Africa,Eastern Cape,5361,Hackney
South Africa,Eastern Cape,5362,Whittlesea
South Africa,Eastern Cape,5363,Kamastone
South Africa,Eastern Cape,5364,Whittlesea
South Africa,Eastern Cape,5365,Cradock
South Africa,Eastern Cape,5370,Tarkastad
South Africa,Eastern Cape,5375,Cofimvaba
South Africa,Eastern Cape,5376,Cofimvaba
South Africa,Eastern Cape,5377,Cofimvaba
South Africa,Eastern Cape,5380,Cofimvaba
South Africa,Eastern Cape,5381,Cofimvaba
South Africa,Eastern Cape,5382,Cofimvaba
South Africa,Eastern Cape,5400,Tsomo
South Africa,Eastern Cape,5401,Tsomo
South Africa,Eastern Cape,5402,Tsomo
South Africa,Eastern Cape,5403,Ncora
South Africa,Eastern Cape,5404,Tsomo
South Africa,Eastern Cape,5405,Tsomo
South Africa,Eastern Cape,5410,Lady frere
South Africa,Eastern Cape,5411,Lady frere
South Africa,Eastern Cape,5412,Lady frere
South Africa,Eastern Cape,5413,Askeaton
South Africa,Eastern Cape,5414,Lady frere
South Africa,Eastern Cape,5415,Lady frere
South Africa,Eastern Cape,5416,Lady frere
South Africa,Eastern Cape,5417,Lady frere
South Africa,Eastern Cape,5418,Lady frere
South Africa,Eastern Cape,5419,Lady frere
South Africa,Eastern Cape,5420,Dordrecht
South Africa,Eastern Cape,5425,Halseton
South Africa,Eastern Cape,5435,Dordrecht
South Africa,Eastern Cape,5436,Dordrecht
South Africa,Eastern Cape,5437,Rossouw
South Africa,Eastern Cape,5445,Indwe
South Africa,Eastern Cape,5446,Ida
South Africa,Eastern Cape,5455,Cala
South Africa,Eastern Cape,5460,Elliot
South Africa,Eastern Cape,5470,Ugie
South Africa,Eastern Cape,5480,Maclear
South Africa,Eastern Cape,5481,Maclear
South Africa,Eastern Cape,5483,Maclear
South Africa,Eastern Cape,5500,Molteno
South Africa,Eastern Cape,5501,Stormberg
South Africa,Eastern Cape,5600,King william's town
South Africa,Eastern Cape,5601,King william's town
South Africa,Eastern Cape,5602,Fort murray
South Africa,Eastern Cape,5604,Debe nek
South Africa,Eastern Cape,5605,Bisho
South Africa,Eastern Cape,5606,Bisho
South Africa,Eastern Cape,5607,King william's town
South Africa,Eastern Cape,5608,Bisho
South Africa,Eastern Cape,5609,King william's town
South Africa,Eastern Cape,5610,King william's town
South Africa,Eastern Cape,5611,King williams town
South Africa,Eastern Cape,5612,Peddie
South Africa,Eastern Cape,5613,Tshatshu
South Africa,Eastern Cape,5614,King williams town
South Africa,Eastern Cape,5619,Machibi
South Africa,Eastern Cape,5620,Bisho
South Africa,Eastern Cape,5630,Whittlesea
South Africa,Eastern Cape,5640,Peddie
South Africa,Eastern Cape,5641,Hamburg
South Africa,Eastern Cape,5643,Peddie
South Africa,Eastern Cape,5644,Peddie
South Africa,Eastern Cape,5645,Peddie
South Africa,Eastern Cape,5660,Berlin
South Africa,Eastern Cape,5661,Mncotsho
South Africa,Eastern Cape,5662,Mabaleni
South Africa,Eastern Cape,5663,Tshabo 1
South Africa,Eastern Cape,5664,Mbolompeni
South Africa,Eastern Cape,5670,Keiskammahoek
South Africa,Eastern Cape,5671,Bisho
South Africa,Eastern Cape,5672,Rabula
South Africa,Eastern Cape,5680,Keiskammahoek
South Africa,Eastern Cape,5685,Middledrift
South Africa,Eastern Cape,5686,Middledrift
South Africa,Eastern Cape,5687,Mbizana
South Africa,Eastern Cape,5688,East london
South Africa,Eastern Cape,5700,Alice
South Africa,Eastern Cape,5701,Alice
South Africa,Eastern Cape,5702,Alice
South Africa,Eastern Cape,5703,Alice
South Africa,Eastern Cape,5704,Khayalethu
South Africa,Eastern Cape,5705,Alice
South Africa,Eastern Cape,5706,Alice
South Africa,Eastern Cape,5707,Sigingqini
South Africa,Eastern Cape,5708,Alice
South Africa,Eastern Cape,5709,Sheshegu
South Africa,Eastern Cape,5710,Msobomvu
South Africa,Eastern Cape,5720,Fort beaufort
South Africa,Eastern Cape,5721,Hogsback
South Africa,Eastern Cape,5722,Ngcelwane
South Africa,Eastern Cape,5730,Fort beaufort
South Africa,Eastern Cape,5740,Eastern cape
South Africa,Eastern Cape,5750,Seymour
South Africa,Eastern Cape,5760,Adelaide
South Africa,Eastern Cape,5780,Bedford
South Africa,Eastern Cape,5800,Kommadagga
South Africa,Eastern Cape,5805,Grahamstad
South Africa,Eastern Cape,5810,Middleton
South Africa,Eastern Cape,5820,Cookhouse
South Africa,Eastern Cape,5821,Cookhouse
South Africa,Eastern Cape,5824,Cookhouse
South Africa,Eastern Cape,5825,Witmos
South Africa,Eastern Cape,5827,Onder-smoordrif
South Africa,Eastern Cape,5830,Cookhouse
South Africa,Eastern Cape,5850,Somerset east
South Africa,North West,5860,Pearston
South Africa,Eastern Cape,5870,Cradock
South Africa,Eastern Cape,5880,Cradock
South Africa,Eastern Cape,5881,Cradock
South Africa,Eastern Cape,5882,Cradock
South Africa,Eastern Cape,5883,Cradock
South Africa,Eastern Cape,5884,Cradock
South Africa,Eastern Cape,5900,Eastern cape
South Africa,Eastern Cape,5920,Steynsburg
South Africa,Eastern Cape,5930,Hofmeyr
South Africa,Eastern Cape,5950,Noupoort
South Africa,Eastern Cape,6000,Port elizabeth
South Africa,Eastern Cape,6001,Port elizabeth
South Africa,Eastern Cape,6002,Moffat place
South Africa,Eastern Cape,6003,Port elizabeth
South Africa,Eastern Cape,6004,Zwide
South Africa,Eastern Cape,6005,Port elizabeth
South Africa,Eastern Cape,6006,Port elizabeth
South Africa,Eastern Cape,6008,Port elizabeth
South Africa,Eastern Cape,6011,Emerald hill
South Africa,Eastern Cape,6012,Estadeal
South Africa,Eastern Cape,6013,Port elizabeth
South Africa,Eastern Cape,6014,Port elizabeth
South Africa,Eastern Cape,6015,Port elizabeth
South Africa,Eastern Cape,6016,Port elizabeth
South Africa,Eastern Cape,6017,Hunter's retreat
South Africa,Eastern Cape,6018,Port elizabeth
South Africa,Eastern Cape,6019,Port elizabeth
South Africa,Eastern Cape,6020,Gelvandale
South Africa,Eastern Cape,6021,Uitenhage
South Africa,Eastern Cape,6023,Clarendon marine
South Africa,Eastern Cape,6024,Gqebera
South Africa,Eastern Cape,6025,Linton grange
South Africa,Eastern Cape,6026,Port elizabeth
South Africa,Eastern Cape,6027,Port elizabeth
South Africa,Eastern Cape,6028,Bethelsdorp
South Africa,Eastern Cape,6029,Port elizabeth speed services
South Africa,Eastern Cape,6030,Boardwalk
South Africa,Eastern Cape,6031,Port elizabeth
South Africa,Eastern Cape,6032,Port elizabeth
South Africa,Eastern Cape,6033,Port elizabeth
South Africa,Eastern Cape,6045,Newton park
South Africa,Eastern Cape,6055,Port elizabeth
South Africa,Eastern Cape,6056,Port elizabeth
South Africa,Eastern Cape,6057,Port elizabeth
South Africa,Eastern Cape,6058,Port elizabeth
South Africa,Eastern Cape,6059,Port elizabeth
South Africa,Eastern Cape,6060,Port elizabeth
South Africa,Eastern Cape,6061,Port elizabeth
South Africa,Eastern Cape,6062,Port elizabeth
South Africa,Eastern Cape,6063,Cawood
South Africa,Eastern Cape,6065,Overbaakens
South Africa,Eastern Cape,6070,Emerald hill
South Africa,Eastern Cape,6100,Coega
South Africa,Eastern Cape,6105,Addo
South Africa,Eastern Cape,6107,Addo
South Africa,Eastern Cape,6109,Addo
South Africa,Eastern Cape,6115,Addo
South Africa,Eastern Cape,6120,Kirkwood
South Africa,Eastern Cape,6121,Kirkwood
South Africa,Eastern Cape,6125,Kirkwood
South Africa,Eastern Cape,6130,Paterson
South Africa,Eastern Cape,6131,Paterson
South Africa,Eastern Cape,6135,Alicedale
South Africa,Eastern Cape,6139,Grahamstad
South Africa,Eastern Cape,6140,Grahamstad
South Africa,Eastern Cape,6141,Grahamstad
South Africa,Eastern Cape,6142,Grahamstown
South Africa,Eastern Cape,6143,Grahamstown
South Africa,Eastern Cape,6144,Gwalana
South Africa,Eastern Cape,6145,Grahamstown
South Africa,Eastern Cape,6146,Grahamstown
South Africa,Eastern Cape,6148,Grahamstown north
South Africa,Eastern Cape,6150,Grahamstown
South Africa,Eastern Cape,6164,Undetermined
South Africa,Eastern Cape,6166,Bathurst
South Africa,Eastern Cape,6170,Port alfred
South Africa,Eastern Cape,6171,Port alfred
South Africa,Eastern Cape,6172,Port alfred
South Africa,Eastern Cape,6173,Port alfred
South Africa,Eastern Cape,6175,Colchester
South Africa,Eastern Cape,6177,Undetermined
South Africa,Eastern Cape,6180,Port elizabeth
South Africa,Eastern Cape,6185,Alexandria
South Africa,Eastern Cape,6186,Alexandria
South Africa,Eastern Cape,6187,Alexandria
South Africa,Eastern Cape,6188,Port elizabeth
South Africa,Eastern Cape,6189,Alexandria
South Africa,Eastern Cape,6190,Boesmansriviermond
South Africa,Eastern Cape,6191,Kenton on sea
South Africa,Eastern Cape,6200,New brighton
South Africa,Eastern Cape,6201,New brighton
South Africa,Eastern Cape,6202,New brighton
South Africa,Eastern Cape,6203,Joe slovo camp
South Africa,Eastern Cape,6204,Port elizabeth
South Africa,Eastern Cape,6205,Kadwezi
South Africa,Eastern Cape,6206,Sitofile
South Africa,Eastern Cape,6209,Port elizabeth
South Africa,Eastern Cape,6210,Port elizabeth
South Africa,Eastern Cape,6211,Motherwell
South Africa,Eastern Cape,6212,Port elizabeth
South Africa,Eastern Cape,6213,Port elizabeth
South Africa,Eastern Cape,6215,Port elizabeth
South Africa,Eastern Cape,6219,Despatch
South Africa,Eastern Cape,6220,Despatch
South Africa,Eastern Cape,6229,Uitenhage
South Africa,Eastern Cape,6230,Uitenhage
South Africa,Eastern Cape,6231,Uitenhage
South Africa,Eastern Cape,6232,Uitenhage
South Africa,Eastern Cape,6234,Uitenhage
South Africa,Eastern Cape,6236,Kleinpoort
South Africa,Eastern Cape,6237,Port elizabeth
South Africa,Eastern Cape,6238,Uitenhage
South Africa,Eastern Cape,6241,Gambleville
South Africa,Eastern Cape,6242,Kwanobuhle
South Africa,Eastern Cape,6250,Steytlerville
South Africa,Eastern Cape,6255,Klipplaat
South Africa,Eastern Cape,6265,Jansenville
South Africa,Eastern Cape,6270,Aberdeen
South Africa,Eastern Cape,6280,Graaff-reinet
South Africa,Eastern Cape,6281,Graaff-reinet
South Africa,Eastern Cape,6282,Adendorp
South Africa,Eastern Cape,6286,Graaff-reinet
South Africa,Eastern Cape,6300,Humansdorp
South Africa,Eastern Cape,6302,Humansdorp
South Africa,Eastern Cape,6303,Humansdorp
South Africa,Eastern Cape,6304,Humansdorp
South Africa,Eastern Cape,6306,Humansdorp
South Africa,Eastern Cape,6307,Humansdorp
South Africa,Eastern Cape,6308,Storms river
South Africa,Eastern Cape,6310,Humansdorp
South Africa,Eastern Cape,6311,Humansdorp
South Africa,Eastern Cape,6312,St francis bay
South Africa,Eastern Cape,6313,Humansdorp
South Africa,Eastern Cape,6320,Undetermined
South Africa,Eastern Cape,6330,Jeffreys bay
South Africa,Eastern Cape,6331,Jeffreys bay
South Africa,Eastern Cape,6332,Jeffreys bay
South Africa,Eastern Cape,6335,Patensie
South Africa,Eastern Cape,6350,Hankey
South Africa,Eastern Cape,6351,Hackney
South Africa,Eastern Cape,6360,Port elizabeth
South Africa,Eastern Cape,6365,Port elizabeth
South Africa,Eastern Cape,6370,Loerie
South Africa,Eastern Cape,6375,Humansdorp
South Africa,Eastern Cape,6385,Port elizabeth
South Africa,Eastern Cape,6390,Port elizabeth
South Africa,Eastern Cape,6400,Kareedouw
South Africa,Eastern Cape,6410,Joubertina
South Africa,Eastern Cape,6430,Krakeel river
South Africa,Eastern Cape,6435,Louterwater
South Africa,Eastern Cape,6440,Misgund
South Africa,Eastern Cape,6445,Willowmore
South Africa,Eastern Cape,6446,Willowmore
South Africa,Eastern Cape,6447,Willowmore
South Africa,Eastern Cape,6450,Rietbron
South Africa,Eastern Cape,6451,Willowmore
South Africa,Eastern Cape,6452,Willowmore
South Africa,Eastern Cape,6454,Willowmore
South Africa,Eastern Cape,6460,Uniondale
South Africa,Eastern Cape,6462,Uniondale
South Africa,Eastern Cape,6463,Uniondale
South Africa,Eastern Cape,6466,Uniondale
South Africa,Eastern Cape,6467,Uniondale
South Africa,Eastern Cape,6480,Uniondale
South Africa,Eastern Cape,6490,Uniondale
South Africa,Western Cape,6500,Mossel bay
South Africa,Western Cape,6501,Mossel bay
South Africa,Western Cape,6503,Mossel bay
South Africa,Western Cape,6504,Mossel bay
South Africa,Western Cape,6505,Mossel bay
South Africa,Western Cape,6506,Kwanonqaba
South Africa,Western Cape,6507,Mossel bay
South Africa,Western Cape,6510,Mossel bay
South Africa,Western Cape,6511,Mossel bay
South Africa,Western Cape,6520,Hartenbos
South Africa,Western Cape,6525,Great brak river
South Africa,Western Cape,6526,Great brak river
South Africa,Western Cape,6529,George
South Africa,Western Cape,6530,George
South Africa,Western Cape,6531,George
South Africa,Western Cape,6534,George
South Africa,Western Cape,6535,George
South Africa,Western Cape,6536,George
South Africa,Western Cape,6537,George
South Africa,Western Cape,6538,George
South Africa,Western Cape,6539,George
South Africa,Western Cape,6541,George
South Africa,Western Cape,6543,George speed services
South Africa,Western Cape,6544,George
South Africa,Western Cape,6545,Thembalethu
South Africa,Western Cape,6560,George
South Africa,Western Cape,6570,Knysna
South Africa,Western Cape,6571,Knysna
South Africa,Western Cape,6573,Sedgefield
South Africa,Western Cape,6576,Knysna
South Africa,Western Cape,6580,Knysna
South Africa,Western Cape,6583,Knysna
South Africa,Western Cape,6600,Plettenberg bay
South Africa,Western Cape,6601,Kwanokuthula
South Africa,Western Cape,6602,Plettenberg bay
South Africa,Western Cape,6603,Plettenberg bay
South Africa,Western Cape,6604,Plettenberg bay
South Africa,Western Cape,6605,Plettenberg bay
South Africa,Western Cape,6606,Plettenberg bay
South Africa,Western Cape,6615,George
South Africa,Western Cape,6620,Oudtshoorn
South Africa,Western Cape,6623,Oudtshoorn
South Africa,Western Cape,6624,Oudtshoorn
South Africa,Western Cape,6625,Oudshoorn
South Africa,Western Cape,6628,Oudtshoorn
South Africa,Western Cape,6631,Oudtshoorn
South Africa,Western Cape,6632,Oudtshoorn
South Africa,Western Cape,6633,Oudtshoorn
South Africa,Western Cape,6634,Oudtshoorn
South Africa,Western Cape,6650,Oudtshoorn
South Africa,Western Cape,6651,Oudtshoorn
South Africa,Western Cape,6655,Ladismith
South Africa,Western Cape,6656,Ladismith
South Africa,Western Cape,6660,Calitzdorp
South Africa,Western Cape,6665,Heidelberg wc
South Africa,Western Cape,6666,Heidelberg wc
South Africa,Western Cape,6667,Heidelberg wc
South Africa,Western Cape,6670,Riversdale
South Africa,Western Cape,6671,Riversdale
South Africa,Western Cape,6674,Stilbaai
South Africa,Western Cape,6675,Still bay
South Africa,Western Cape,6676,Still bay
South Africa,Western Cape,6690,Ladismith
South Africa,Western Cape,6695,Albertina
South Africa,Western Cape,6696,Albertina
South Africa,Western Cape,6705,Robertson
South Africa,Western Cape,6707,Robertson
South Africa,Western Cape,6708,Mcgregor
South Africa,Western Cape,6715,Ashton
South Africa,Western Cape,6720,Montagu
South Africa,Western Cape,6730,Bonnievale
South Africa,Western Cape,6740,Swellendam
South Africa,Western Cape,6741,Bonnievale
South Africa,Western Cape,6742,Swellendam
South Africa,Western Cape,6743,Swellendam
South Africa,Western Cape,6750,Barrydale
South Africa,Western Cape,6810,Porterville
South Africa,Western Cape,6811,Porterville
South Africa,Western Cape,6812,Porterville
South Africa,Western Cape,6820,Tulbagh
South Africa,Western Cape,6821,Tulbagh
South Africa,Western Cape,6830,Wolseley
South Africa,Western Cape,6835,Ceres
South Africa,Western Cape,6836,Ceres
South Africa,Western Cape,6837,Ceres
South Africa,Western Cape,6838,Ceres
South Africa,Western Cape,6840,Ceres
South Africa,Western Cape,6845,Worcester
South Africa,Western Cape,6848,Villiersdorp
South Africa,Western Cape,6849,Worcester
South Africa,Western Cape,6850,Worcester
South Africa,Western Cape,6851,Worcester
South Africa,Western Cape,6852,Worcester
South Africa,Western Cape,6853,Worcester
South Africa,Western Cape,6854,Worcester
South Africa,Western Cape,6855,Worcester
South Africa,Western Cape,6856,Worcester
South Africa,Western Cape,6857,Worcester
South Africa,Western Cape,6858,Worcester
South Africa,Western Cape,6859,Worcester
South Africa,Western Cape,6861,Worcester
South Africa,Western Cape,6862,Worcester
South Africa,Western Cape,6863,Worcester
South Africa,Western Cape,6870,Worcester
South Africa,Western Cape,6875,De doorns
South Africa,Western Cape,6880,Touws river
South Africa,Western Cape,6900,Laingsburg
South Africa,Western Cape,6901,Laingsburg
South Africa,Western Cape,6920,Sutherland
South Africa,Western Cape,6929,Undetermined
South Africa,Western Cape,6930,Prince albert
South Africa,Western Cape,6931,Prince albert road
South Africa,Western Cape,6932,Prince albert
South Africa,Western Cape,6940,Beaufort west
South Africa,Western Cape,6950,Beaufort west
South Africa,Western Cape,6951,Undetermined
South Africa,Western Cape,6960,Fraserburg
South Africa,Western Cape,6970,Beaufort wes
South Africa,Western Cape,6973,Beaufort west
South Africa,Western Cape,6976,Nieuveld
South Africa,Western Cape,6985,Loxton
South Africa,Western Cape,6995,Murraysburg
South Africa,Western Cape,7000,De aar
South Africa,Western Cape,7005,Hanover
South Africa,Western Cape,7070,Victoria west
South Africa,Western Cape,7071,Victoria west
South Africa,Western Cape,7090,Northern cape
South Africa,Western Cape,7100,Cape town
South Africa,Western Cape,7101,Eerste river
South Africa,Western Cape,7102,Eerste river
South Africa,Western Cape,7103,Cape town
South Africa,Western Cape,7105,Eerste river
South Africa,Western Cape,7110,Somerset west
South Africa,Western Cape,7129,Somerset west
South Africa,Western Cape,7130,Firgrove
South Africa,Western Cape,7131,Somerset west
South Africa,Western Cape,7133,Somerset west
South Africa,Western Cape,7134,Somerset west
South Africa,Western Cape,7135,Somerset west
South Africa,Western Cape,7137,Somerset mall
South Africa,Western Cape,7139,Strand
South Africa,Western Cape,7140,Gordon's bay
South Africa,Western Cape,7141,Kleinmond
South Africa,Western Cape,7144,Strand
South Africa,Western Cape,7150,Undetermined
South Africa,Western Cape,7151,Gordon's bay
South Africa,Western Cape,7160,Grabouw
South Africa,Western Cape,7171,Grabouw
South Africa,Western Cape,7180,Grabouw
South Africa,Western Cape,7185,Caledon
South Africa,Western Cape,7195,Kleinmond
South Africa,Western Cape,7196,Kleinmond
South Africa,Western Cape,7200,Hermanus
South Africa,Western Cape,7201,Hermanus
South Africa,Western Cape,7202,Hermanus
South Africa,Western Cape,7210,Hermanus
South Africa,Western Cape,7220,De kelders
South Africa,Western Cape,7221,Gans bay
South Africa,Western Cape,7230,Caledon
South Africa,Western Cape,7232,Caledon
South Africa,Western Cape,7233,Greyton
South Africa,Western Cape,7234,Bosmanskloof
South Africa,Western Cape,7250,Caledon
South Africa,Western Cape,7252,Riviersonderend
South Africa,Western Cape,7270,Napier
South Africa,Western Cape,7271,Gans bay
South Africa,Western Cape,7280,Bredasdorp
South Africa,Western Cape,7281,Bredasdorp
South Africa,Western Cape,7282,Bredasdorp
South Africa,Western Cape,7283,Bredasdorp
South Africa,Western Cape,7284,Elim
South Africa,Western Cape,7285,Bredasdorp
South Africa,Western Cape,7287,Bredasdorp
South Africa,Western Cape,7299,Malmesbury
South Africa,Western Cape,7300,Malmesbury
South Africa,Western Cape,7302,Malmesbury
South Africa,Western Cape,7303,Malmesbury
South Africa,Western Cape,7304,Atlantis
South Africa,Western Cape,7305,Malmesbury
South Africa,Western Cape,7306,Malmesbury
South Africa,Western Cape,7307,Malmesbury
South Africa,Western Cape,7308,Malmesbury
South Africa,Western Cape,7310,Moorreesburg
South Africa,Western Cape,7312,Moorreesburg
South Africa,Western Cape,7320,Piketberg
South Africa,Western Cape,7321,Piketberg
South Africa,Western Cape,7322,Piketberg
South Africa,Western Cape,7323,Piketberg
South Africa,Western Cape,7325,Piketberg
South Africa,Western Cape,7335,Piketberg
South Africa,Western Cape,7340,Citrusdal
South Africa,Western Cape,7345,Darling
South Africa,Western Cape,7347,Dassenberg
South Africa,Western Cape,7348,Atlantis
South Africa,Western Cape,7349,Atlantis
South Africa,Western Cape,7350,Atlantis
South Africa,Western Cape,7351,Darling
South Africa,Western Cape,7352,Dassenberg
South Africa,Western Cape,7353,Atlantis
South Africa,Western Cape,7354,Atlantis
South Africa,Western Cape,7355,Hopefield
South Africa,Western Cape,7357,Langebaan
South Africa,Western Cape,7358,Atlantis
South Africa,Western Cape,7365,Velddrif
South Africa,Western Cape,7375,Vredenburg
South Africa,Western Cape,7380,Vredenburg
South Africa,Western Cape,7381,Vredenburg
South Africa,Western Cape,7382,Saldanha
South Africa,Western Cape,7390,Vredenburg
South Africa,Western Cape,7395,Saldanha
South Africa,Western Cape,7400,Cape town
South Africa,Western Cape,7404,Cape town
South Africa,Western Cape,7405,Cape town
South Africa,Western Cape,7406,Cape town
South Africa,Western Cape,7407,Cape town
South Africa,Western Cape,7415,Undetermined
South Africa,Western Cape,7420,Cape town
South Africa,Western Cape,7425,Cape town
South Africa,Western Cape,7430,Cape town
South Africa,Western Cape,7435,Cape town
South Africa,Western Cape,7436,Milnerton
South Africa,Western Cape,7437,Cape town
South Africa,Western Cape,7439,Cape town
South Africa,Western Cape,7440,Melkbosstrand
South Africa,Western Cape,7441,Bloubergrant
South Africa,Western Cape,7442,Milnerton
South Africa,Western Cape,7443,Milnerton
South Africa,Western Cape,7444,Bloubergrant
South Africa,Western Cape,7446,Milnerton
South Africa,Western Cape,7447,Milnerton
South Africa,Western Cape,7449,Bloubergrant
South Africa,Western Cape,7450,Pinelands
South Africa,Western Cape,7451,Maitland
South Africa,Western Cape,7455,Cape town
South Africa,Western Cape,7456,Cape town
South Africa,Western Cape,7459,Goodwood
South Africa,Western Cape,7460,Cape town
South Africa,Western Cape,7463,Cape town
South Africa,Western Cape,7465,Matroosfontein
South Africa,Western Cape,7475,Goodwood
South Africa,Western Cape,7480,Matroosfontein
South Africa,Western Cape,7485,Goodwood
South Africa,Western Cape,7489,Cape town
South Africa,Western Cape,7490,Cape town
South Africa,Western Cape,7491,Matroosfontein
South Africa,Western Cape,7493,Belhar
South Africa,Western Cape,7499,Cape town
South Africa,Western Cape,7500,Cape town
South Africa,Western Cape,7501,Parow
South Africa,Western Cape,7503,Parow
South Africa,Western Cape,7504,Belhar
South Africa,Western Cape,7505,Parow
South Africa,Western Cape,7506,Parow
South Africa,Western Cape,7507,Cape town
South Africa,Western Cape,7525,Cape town
South Africa,Western Cape,7530,Bellville
South Africa,Western Cape,7532,Bellville
South Africa,Western Cape,7533,Bellville
South Africa,Western Cape,7535,Cape town
South Africa,Western Cape,7536,Bellville
South Africa,Western Cape,7537,Bellville
South Africa,Western Cape,7538,Bellville
South Africa,Western Cape,7539,Bellville
South Africa,Western Cape,7540,Bellville
South Africa,Western Cape,7550,Cape town
South Africa,Western Cape,7551,Cape town
South Africa,Western Cape,7560,Brackenfell
South Africa,Western Cape,7561,Cape town
South Africa,Western Cape,7562,Undetermined
South Africa,Western Cape,7569,Kraaifontein
South Africa,Western Cape,7570,Kraaifontein
South Africa,Western Cape,7571,Kraaifontein
South Africa,Western Cape,7572,Kraaifontein north
South Africa,Western Cape,7579,Kuilsrivier
South Africa,Western Cape,7580,Blackheath
South Africa,Western Cape,7581,Kuils river
South Africa,Western Cape,7582,Kuils river
South Africa,Western Cape,7583,Kuilsrivier
South Africa,Western Cape,7599,Stellenbosch
South Africa,Western Cape,7600,Idasvallei
South Africa,Western Cape,7601,Stellenbosch
South Africa,Western Cape,7602,Stellenbosch
South Africa,Western Cape,7603,Stellenbosch
South Africa,Western Cape,7604,Stellenbosch
South Africa,Western Cape,7605,Stellenbosch
South Africa,Western Cape,7607,Stellenbosch
South Africa,Western Cape,7608,Stellenbosch
South Africa,Western Cape,7609,Idasvallei
South Africa,Western Cape,7611,Stellenbosch
South Africa,Western Cape,7612,Stellenbosch
South Africa,Western Cape,7613,Stellenbosch
South Africa,Western Cape,7614,Stellenbosch
South Africa,Western Cape,7615,Stellenbosch
South Africa,Western Cape,7620,Paarl
South Africa,Western Cape,7622,Paarl
South Africa,Western Cape,7623,Paarl
South Africa,Western Cape,7624,Paarl
South Africa,Western Cape,7625,Paarl
South Africa,Western Cape,7626,Paarl
South Africa,Western Cape,7627,Huguenot
South Africa,Western Cape,7628,Nederburg
South Africa,Western Cape,7630,Paarl
South Africa,Western Cape,7645,Nederburg
South Africa,Western Cape,7646,Huguenot
South Africa,Western Cape,7654,Wellington
South Africa,Western Cape,7655,Lagabuya
South Africa,Western Cape,7656,Wellington
South Africa,Western Cape,7670,Paarl
South Africa,Western Cape,7680,Paarl
South Africa,Western Cape,7681,Paarl
South Africa,Western Cape,7690,Franschhoek
South Africa,Western Cape,7691,Franschhoek
South Africa,Western Cape,7700,Cape town
South Africa,Western Cape,7701,Rondebosch
South Africa,Western Cape,7702,Rondebosch
South Africa,Western Cape,7705,Cape town
South Africa,Western Cape,7707,Rondebosch
South Africa,Western Cape,7708,Cape town
South Africa,Western Cape,7725,Cape town
South Africa,Western Cape,7735,Cape town
South Africa,Western Cape,7740,Claremont
South Africa,Western Cape,7745,Cape town
South Africa,Western Cape,7750,Cape town
South Africa,Western Cape,7751,Cape town
South Africa,Western Cape,7752,Guguletu
South Africa,Western Cape,7755,Cape town
South Africa,Western Cape,7756,Guguletu
South Africa,Western Cape,7760,Cape town
South Africa,Western Cape,7762,Gatesville
South Africa,Western Cape,7763,Gatesville
South Africa,Western Cape,7764,Athlone
South Africa,Western Cape,7765,Lingelethu west
South Africa,Western Cape,7766,Cape town
South Africa,Western Cape,7767,Gatesville
South Africa,Western Cape,7769,Gatesville
South Africa,Western Cape,7770,Lansdowne
South Africa,Western Cape,7779,Cape town
South Africa,Western Cape,7780,Cape town
South Africa,Western Cape,7782,Cape town
South Africa,Western Cape,7783,Cape town
South Africa,Western Cape,7784,Cape town
South Africa,Western Cape,7785,Cape town
South Africa,Western Cape,7786,Mitchells plain
South Africa,Western Cape,7787,Mitchells plain
South Africa,Western Cape,7788,Mitchells plain
South Africa,Western Cape,7789,Cape town
South Africa,Western Cape,7790,Lansdowne
South Africa,Western Cape,7791,Khayelitsha
South Africa,Western Cape,7793,Khayelitsha
South Africa,Western Cape,7794,Khayelitsha
South Africa,Western Cape,7798,Mitchells plain
South Africa,Western Cape,7800,Cape town
South Africa,Western Cape,7801,Cape town
South Africa,Western Cape,7802,Mitchells plain
South Africa,Western Cape,7805,Grassy park
South Africa,Western Cape,7806,Cape town
South Africa,Western Cape,7808,Cape town
South Africa,Western Cape,7824,Cape town
South Africa,Western Cape,7830,Undetermined
South Africa,Western Cape,7848,Cape town
South Africa,Western Cape,7864,Cape town
South Africa,Western Cape,7872,Cape town
South Africa,Western Cape,7880,Cape town
South Africa,Western Cape,7888,Cape town
South Africa,Western Cape,7905,Caledon square
South Africa,Western Cape,7915,Cape town
South Africa,Western Cape,7925,Cape town
South Africa,Western Cape,7935,Cape town
South Africa,Western Cape,7937,Cape town
South Africa,Western Cape,7941,Cape town
South Africa,Western Cape,7945,Bergvliet
South Africa,Western Cape,7946,Muizenberg
South Africa,Western Cape,7947,Retreat
South Africa,Western Cape,7948,Capricorn square
South Africa,Western Cape,7950,Cape town
South Africa,Western Cape,7965,Cape town
South Africa,Western Cape,7966,Cape town
South Africa,Western Cape,7974,Cape town
South Africa,Western Cape,7975,Cape town
South Africa,Western Cape,7976,Fish hoek
South Africa,Western Cape,7977,Fish hoek
South Africa,Western Cape,7978,Fish hoek
South Africa,Western Cape,7979,Fish hoek
South Africa,Western Cape,7980,Undetermined
South Africa,Western Cape,7985,Fish hoek
South Africa,Western Cape,7990,Fish hoek
South Africa,Western Cape,7995,Fish hoek
South Africa,Western Cape,8000,Cape town
South Africa,Western Cape,8001,Cape town
South Africa,Western Cape,8002,Cape town
South Africa,Western Cape,8003,Cape town
South Africa,Western Cape,8004,Cape mail speed services networks
South Africa,Western Cape,8005,Cape town
South Africa,Western Cape,8007,Cape town
South Africa,Western Cape,8008,Cape town
South Africa,Western Cape,8010,Cape town
South Africa,Western Cape,8012,Cape town
South Africa,Western Cape,8017,Cape town
South Africa,Western Cape,8018,Cape town
South Africa,Western Cape,8019,Mega millions
South Africa,Western Cape,8020,Cape town
South Africa,Western Cape,8040,Cape town
South Africa,Western Cape,8050,Cape town
South Africa,Western Cape,8051,Cape town
South Africa,Western Cape,8060,Cape town
South Africa,Western Cape,8100,Piketberg
South Africa,Western Cape,8105,Piketberg
South Africa,Western Cape,8110,Piketberg
South Africa,Western Cape,8115,Piketberg
South Africa,Western Cape,8120,Clanwilliam
South Africa,Western Cape,8121,Graafwater
South Africa,Western Cape,8122,Graafwater
South Africa,Western Cape,8130,Lambert's bay
South Africa,Western Cape,8135,Clanwilliam
South Africa,Western Cape,8138,Clanwilliam
South Africa,Western Cape,8145,Klawer
South Africa,Western Cape,8146,Vredendal
South Africa,Western Cape,8147,Klawer
South Africa,Western Cape,8149,Lutzville
South Africa,Western Cape,8151,Vredendal
South Africa,Western Cape,8160,Cape town
South Africa,Western Cape,8165,Lutzville
South Africa,Western Cape,8170,Vanrhynsdorp
South Africa,Northern Cape,8180,Nieuwoudtville
South Africa,Northern Cape,8185,Loeriesfontein
South Africa,Northern Cape,8190,Calvinia
South Africa,Northern Cape,8191,Calvinia
South Africa,Northern Cape,8193,Calvinia
South Africa,Northern Cape,8200,Bitterfontein
South Africa,Northern Cape,8201,Bitterfontein
South Africa,Northern Cape,8202,Bitterfontein
South Africa,Northern Cape,8204,Bitterfontein
South Africa,Northern Cape,8205,Bitterfontein
South Africa,Northern Cape,8207,Vredendal
South Africa,Northern Cape,8208,Undetermined
South Africa,Northern Cape,8220,Garies
South Africa,Northern Cape,8221,Garies
South Africa,Northern Cape,8222,Hondeklip bay
South Africa,Northern Cape,8223,Garies
South Africa,Northern Cape,8240,Springbok
South Africa,Northern Cape,8241,Springbok
South Africa,Northern Cape,8242,Springbok
South Africa,Northern Cape,8244,Steinkopf
South Africa,Northern Cape,8245,Kotzeshoop
South Africa,Northern Cape,8246,Vioolsdrif
South Africa,Northern Cape,8247,Springbok
South Africa,Northern Cape,8249,Kleinsee
South Africa,Northern Cape,8251,Springbok
South Africa,Northern Cape,8252,Kamieskroon
South Africa,Northern Cape,8253,Kamieskroon
South Africa,Northern Cape,8257,Kamieskroon
South Africa,Northern Cape,8260,Bulletrap
South Africa,Northern Cape,8261,Kamieskroon
South Africa,Northern Cape,8265,Nababeep
South Africa,Northern Cape,8270,Okiep
South Africa,Northern Cape,8271,Okiep
South Africa,Northern Cape,8280,Port nolloth
South Africa,North West,8282,Springbok
South Africa,Northern Cape,8283,Port nolloth
South Africa,Northern Cape,8284,Port nolloth
South Africa,Northern Cape,8290,Alexander bay
South Africa,Northern Cape,8292,Alexander bay
South Africa,Northern Cape,8294,Alexander bay
South Africa,Northern Cape,8300,Kimberley
South Africa,Northern Cape,8301,Kimberley
South Africa,Northern Cape,8303,Kimberley
South Africa,Northern Cape,8305,Undetermined
South Africa,Northern Cape,8306,Kimberley
South Africa,Northern Cape,8309,Pescodia
South Africa,Northern Cape,8315,Beaconsfield
South Africa,Northern Cape,8320,Kimberley
South Africa,Northern Cape,8325,Kimberley
South Africa,Northern Cape,8330,Galeshewe
South Africa,Northern Cape,8335,Kimberley
South Africa,Northern Cape,8340,Boshof
South Africa,Northern Cape,8345,Kimberley
South Africa,Northern Cape,8350,Kimberley
South Africa,Northern Cape,8360,Kimberley
South Africa,Northern Cape,8365,Griekwastad
South Africa,Northern Cape,8375,Barkly west
South Africa,Northern Cape,8376,Barkly west
South Africa,Northern Cape,8377,Barkly west
South Africa,Northern Cape,8390,Ulco
South Africa,Northern Cape,8391,Kimberley
South Africa,Northern Cape,8405,Danielskuil
South Africa,Northern Cape,8410,Lime acres
South Africa,Northern Cape,8420,Postmasburg
South Africa,Northern Cape,8423,Mancorp mine
South Africa,Northern Cape,8426,Postmasburg
South Africa,Northern Cape,8445,Postmasburg
South Africa,Northern Cape,8446,Kathu
South Africa,Northern Cape,8447,Seseng
South Africa,Northern Cape,8450,Olifantshoek
South Africa,Northern Cape,8460,Kuruman
South Africa,Northern Cape,8461,Kuruman
South Africa,Northern Cape,8463,Dibeng
South Africa,Northern Cape,8465,Seoding
South Africa,Northern Cape,8466,Kuruman
South Africa,Northern Cape,8467,Hotazel
South Africa,Northern Cape,8468,Kuruman
South Africa,Northern Cape,8470,Kuruman
South Africa,North West,8474,Vryburg
South Africa,North West,8476,Vryburg
South Africa,North West,8477,Mothibistad
South Africa,North West,8478,Vryburg
South Africa,North West,8479,Vryburg
South Africa,North West,8480,Vryburg
South Africa,North West,8481,Mothibistad
South Africa,North West,8482,Mothibistad
South Africa,North West,8483,Summerfield
South Africa,North West,8484,Vryburg
South Africa,North West,8490,Hotazel
South Africa,North West,8491,Santoy
South Africa,North West,8505,Kimberley
South Africa,North West,8510,Windsorton
South Africa,North West,8530,Northern cape
South Africa,North West,8532,Warrenton
South Africa,North West,8534,Jan kempdorp
South Africa,North West,8535,Jan kempdorp
South Africa,North West,8537,Taung station
South Africa,North West,8550,Jan kempdorp
South Africa,North West,8552,Ganspan
South Africa,North West,8553,Jan kempdorp
South Africa,North West,8560,Jan kempdorp
South Africa,North West,8561,Manokwane
South Africa,North West,8565,Pokwani
South Africa,North West,8566,Pampierstad
South Africa,North West,8567,Gataute
South Africa,North West,8568,Green grass
South Africa,North West,8569,Khudutlou
South Africa,North West,8570,Hartswater
South Africa,North West,8575,Magogong
South Africa,North West,8576,Taung
South Africa,North West,8577,Taung station
South Africa,North West,8580,Taung station
South Africa,North West,8581,Pudimoe
South Africa,North West,8582,Ganyesa
South Africa,North West,8583,Taung sta
South Africa,North West,8584,Taung
South Africa,North West,8585,Taung sta
South Africa,North West,8586,Taung sta
South Africa,North West,8587,Ganyesa
South Africa,North West,8588,Taung sta
South Africa,North West,8589,Taung sta
South Africa,North West,8590,Taung sta
South Africa,North West,8591,Taung sta
South Africa,North West,8592,Taung sta
South Africa,North West,8593,Taung sta
South Africa,North West,8594,Taung sta
South Africa,North West,8595,Reivilo
South Africa,North West,8596,Taung sta
South Africa,North West,8597,Taung station
South Africa,North West,8598,Modular range
South Africa,North West,8599,Taung station
South Africa,North West,8600,Vryburg
South Africa,North West,8601,Vryburg
South Africa,North West,8602,Vryburg
South Africa,North West,8603,Vryburg
South Africa,North West,8604,Ganyesa
South Africa,North West,8605,Taung station
South Africa,North West,8606,Taung station
South Africa,North West,8607,Taung station
South Africa,North West,8608,Taung station
South Africa,North West,8609,Taung
South Africa,North West,8610,Vryburg
South Africa,North West,8611,Pomfret
South Africa,North West,8612,Pomfret
South Africa,North West,8613,Ganyesa
South Africa,North West,8614,Pomfret
South Africa,North West,8615,Vryburg
South Africa,North West,8616,Vryburg
South Africa,North West,8617,Pomfret
South Africa,North West,8618,Pomfret
South Africa,North West,8619,Pomfret
South Africa,North West,8620,Pomfret
South Africa,North West,8621,Vryburg
South Africa,North West,8622,Vryburg
South Africa,North West,8623,Ganyesa
South Africa,North West,8624,Vryburg
South Africa,North West,8625,Pomfret
South Africa,North West,8626,Pomfret
South Africa,North West,8627,Glenred
South Africa,North West,8629,Undetermined
South Africa,North West,8650,Stella
South Africa,North West,8655,Madibogo
South Africa,North West,8680,Vryburg
South Africa,North West,8700,Kimberley
South Africa,North West,8701,Ritchie
South Africa,North West,8710,Jacobsdal
South Africa,North West,8720,Belmont
South Africa,North West,8730,Douglas
South Africa,North West,8731,Kimberley
South Africa,North West,8735,Douglas
South Africa,North West,8745,Kimberley
South Africa,North West,8750,Hopetown
South Africa,North West,8751,Hopetown
South Africa,North West,8752,Orania
South Africa,North West,8760,Hopetown
South Africa,North West,8765,Strydenburg
South Africa,North West,8770,Greenpoint
South Africa,North West,8771,Vanderkloof
South Africa,North West,8780,De aar
South Africa,North West,8782,Britstown
South Africa,North West,8795,Philipstown
South Africa,Northern Cape,8800,Upington
South Africa,Northern Cape,8801,Upington
South Africa,Northern Cape,8805,Upington
South Africa,Northern Cape,8806,Upington
South Africa,Northern Cape,8807,Upington
South Africa,Northern Cape,8808,Upington
South Africa,Northern Cape,8809,Upington
South Africa,Northern Cape,8810,Upington
South Africa,Northern Cape,8811,Mier
South Africa,Northern Cape,8813,Upington
South Africa,Northern Cape,8814,Askham
South Africa,Northern Cape,8815,Upington
South Africa,Northern Cape,8816,Upington
South Africa,Northern Cape,8818,Upington
South Africa,Northern Cape,8819,Karos
South Africa,Northern Cape,8820,Upington
South Africa,Northern Cape,8822,Grootdrink
South Africa,Northern Cape,8824,Upington
South Africa,Northern Cape,8826,Groblershoop
South Africa,Northern Cape,8850,Groblershoop
South Africa,Northern Cape,8851,Groblershoop
South Africa,Northern Cape,8860,Keimoes
South Africa,Northern Cape,8861,Keimoes
South Africa,Northern Cape,8862,Neilersdrif
South Africa,Northern Cape,8870,Kakamas
South Africa,Northern Cape,8873,Kakamas
South Africa,Northern Cape,8874,Kakamas
South Africa,Northern Cape,8890,Pofadder
South Africa,Northern Cape,8891,Pella
South Africa,Northern Cape,8892,Pofadder
South Africa,Northern Cape,8893,Springbok
South Africa,Northern Cape,8900,Kenhardt
South Africa,Northern Cape,8910,Marydale
South Africa,Northern Cape,8915,Brandvlei
South Africa,Northern Cape,8920,Williston
South Africa,Northern Cape,8922,Carnarvon
South Africa,Northern Cape,8925,Carnarvon
South Africa,Northern Cape,8930,Niekerkshoop
South Africa,Northern Cape,8940,Prieska
South Africa,Northern Cape,8943,Groblershoop
South Africa,Free State,9159,Undetermined
South Africa,Free State,9300,Bloemfontein
South Africa,Free State,9301,Bloemfontein
South Africa,Free State,9302,Bloemfontein
South Africa,Free State,9303,Bloemfontein
South Africa,Free State,9305,Bloemfontein
South Africa,Free State,9306,Bloemfontein
South Africa,Free State,9307,Bloemfontein
South Africa,Free State,9309,Bloemfontein
South Africa,Free State,9310,Bloemfontein
South Africa,Free State,9311,Bloemfontein
South Africa,Free State,9312,Bloemfontein
South Africa,Free State,9313,Bloemfontein
South Africa,Free State,9315,Bloemfontein
South Africa,Free State,9317,Bloemfontein
South Africa,Free State,9320,Bloemfontein
South Africa,Free State,9321,Bloemfontein
South Africa,Free State,9322,Bloemfontein
South Africa,Free State,9323,Bloemfontein
South Africa,Free State,9324,Bloemfontein
South Africa,Free State,9325,Bloemfontein
South Africa,Free State,9326,Bloemfontein
South Africa,Free State,9327,Bloemfontein
South Africa,Free State,9328,Kagisanong
South Africa,Free State,9329,Bloemfontein speed services
South Africa,Free State,9330,Bloemfontein
South Africa,Free State,9331,Falckvlei
South Africa,Free State,9332,Bloemfontein
South Africa,Free State,9334,Bloemfontein
South Africa,Free State,9338,Bain's vlei
South Africa,Free State,9348,Dealesville
South Africa,Free State,9358,Bloemfontein
South Africa,Free State,9360,Bloemfontein
South Africa,Free State,9364,Bloemfontein
South Africa,Free State,9392,Steunmekaar
South Africa,Free State,9400,Brandfort
South Africa,Free State,9401,Verkeerdevlei
South Africa,Free State,9410,Theunissen
South Africa,Free State,9414,Theunissen
South Africa,Free State,9420,Winburg
South Africa,Free State,9421,Winburg
South Africa,Free State,9430,Free state
South Africa,Free State,9431,Free state
South Africa,Free State,9432,Virginia
South Africa,Free State,9433,Virginia
South Africa,Free State,9435,Virginia
South Africa,Free State,9436,Glen harmony central
South Africa,Free State,9437,Virginia
South Africa,Free State,9438,Welkom
South Africa,Free State,9439,Virginia
South Africa,Free State,9445,Hennenman
South Africa,Free State,9447,Phomolong
South Africa,Free State,9450,Ventersburg
South Africa,Free State,9453,Undetermined
South Africa,Free State,9459,Welkom
South Africa,Free State,9460,Welkom
South Africa,Free State,9462,Welkom
South Africa,Free State,9463,Motsethabong
South Africa,Free State,9464,Steynpan
South Africa,Free State,9465,Welkom
South Africa,Free State,9466,Welkom
South Africa,Free State,9467,Welkom
South Africa,Free State,9468,Geduldpan
South Africa,Free State,9469,Welkom
South Africa,Free State,9470,Welkom
South Africa,Free State,9471,Welkom
South Africa,Free State,9473,Welkom
South Africa,Free State,9475,Motsethabong
South Africa,Free State,9476,Odendaalsrus
South Africa,Free State,9477,Welkom
South Africa,Free State,9478,Motsethabong
South Africa,Free State,9479,Hoopstad
South Africa,Free State,9480,Odendaalsrus
South Africa,Free State,9481,Odendaalsrus central
South Africa,Free State,9482,Hertzogville
South Africa,Free State,9483,Merafong
South Africa,Free State,9484,Virginia
South Africa,Free State,9485,Senekal
South Africa,Free State,9486,Manny's
South Africa,Free State,9487,Motsethabang
South Africa,Free State,9488,Welkom
South Africa,Free State,9489,Tikwana
South Africa,Free State,9490,Allanridge
South Africa,Free State,9492,Allanridge
South Africa,Free State,9499,Kroonstad
South Africa,Free State,9500,Kroonstad
South Africa,Free State,9501,Kroonstad
South Africa,Free State,9502,Kroonpark
South Africa,Free State,9503,Kroonstad
South Africa,Free State,9505,Kroonstad
South Africa,Free State,9515,Steynsrus
South Africa,Free State,9520,Viljoenskroon
South Africa,Free State,9521,Viljoenskroon
South Africa,Free State,9535,Edenville
South Africa,Free State,9540,Koppies
South Africa,Free State,9580,Sasolburg
South Africa,Free State,9585,Parys
South Africa,Free State,9595,Vredefort
South Africa,Free State,9600,Senekal
South Africa,Free State,9602,Arlington
South Africa,Free State,9610,Marquard
South Africa,Free State,9630,Lindley
South Africa,Free State,9640,Petrus steyn
South Africa,Free State,9650,Heilbron
South Africa,Free State,9660,Bothaville
South Africa,Free State,9661,Bothaville
South Africa,Free State,9663,Bothaville
South Africa,Free State,9664,Ramosili
South Africa,Free State,9670,Bultfontein
South Africa,Free State,9680,Wesselsbron
South Africa,Free State,9682,Wesselsbron
South Africa,Free State,9700,Bethlehem
South Africa,Free State,9701,Bethlehem
South Africa,Free State,9702,Bethlehem
South Africa,Free State,9703,Bethlehem
South Africa,Free State,9704,Bethlehem
South Africa,Free State,9705,Bethlehem
South Africa,Free State,9706,Bethlehem
South Africa,Free State,9707,Clarens
South Africa,Free State,9720,Rosendal
South Africa,Free State,9725,Fouriesburg
South Africa,Free State,9730,Ficksburg
South Africa,Free State,9732,Ficksburg
South Africa,Free State,9735,Clocolan
South Africa,Free State,9740,Hobhouse
South Africa,Free State,9742,Jamestown
South Africa,Free State,9744,Burgersdorp
South Africa,Free State,9745,Ladybrand
South Africa,Free State,9746,Ladybrand
South Africa,Free State,9747,Marseilles
South Africa,Free State,9748,Ladybrand
South Africa,Free State,9749,Knapdaar
South Africa,Free State,9750,Aliwal north
South Africa,Free State,9752,Aliwal north
South Africa,Free State,9754,Aliwal north
South Africa,Free State,9755,Lady grey
South Africa,Free State,9756,Herschel
South Africa,Free State,9758,Teresa
South Africa,Free State,9759,Coville
South Africa,Free State,9760,Excelsior
South Africa,Free State,9762,Sterkspruit
South Africa,Free State,9763,Jozannashoek
South Africa,Free State,9764,Bensonvale
South Africa,Free State,9765,Westminster
South Africa,Free State,9766,Dulcies nek
South Africa,Free State,9767,Palmietfontein
South Africa,Free State,9768,Mavelebayi
South Africa,Free State,9769,Tele bridge
South Africa,Free State,9770,Tweespruit
South Africa,Free State,9771,Thaba phatshwa
South Africa,Free State,9772,Kwandofela
South Africa,Free State,9773,Tyinindini
South Africa,Free State,9774,Quimera
South Africa,Free State,9775,Ga-rapulana
South Africa,Free State,9776,Hoita
South Africa,Free State,9777,Blikana
South Africa,Free State,9778,Sipambo basin
South Africa,Free State,9780,Ga-rapulana
South Africa,Free State,9781,Bloemfontein
South Africa,Free State,9782,Botshabelo
South Africa,Free State,9783,Ga-rapulana
South Africa,Free State,9784,Thaba nchu
South Africa,Free State,9785,Botshabelo
South Africa,Free State,9786,Barkly east
South Africa,Free State,9787,Barkly east
South Africa,Free State,9788,Botshabelo
South Africa,Free State,9789,Botshabelo
South Africa,Free State,9790,Thaba nchu
South Africa,Free State,9795,Colesberg
South Africa,Free State,9797,Colesberg
South Africa,Free State,9798,Venterstad
South Africa,Free State,9800,Paul roux
South Africa,Free State,9810,Reitz
South Africa,Free State,9820,Tweeling
South Africa,Free State,9830,Frankfort
South Africa,Free State,9835,Vrede
South Africa,Free State,9840,Villiers
South Africa,Free State,9850,Cornelia
South Africa,Free State,9860,Kestell
South Africa,Free State,9863,Undetermined
South Africa,Free State,9866,Phuthaditjhaba
South Africa,Free State,9868,Witsieshoek
South Africa,Free State,9869,Mokodumela
South Africa,Free State,9870,Makhalaneng
South Africa,Free State,9871,Undetermined
South Africa,Free State,9872,Dikgakeng
South Africa,Free State,9873,Dikgakeng
South Africa,Free State,9874,Poelong
South Africa,Free State,9875,Witsieshoek
South Africa,Free State,9876,Diqhobong
South Africa,Free State,9877,Witsieshoek
South Africa,Free State,9878,Witsieshoek
South Africa,Free State,9880,Harrismith
South Africa,Free State,9882,Harrismith
South Africa,Free State,9883,Harrismith
South Africa,Free State,9885,Harrismith
South Africa,Free State,9890,Warden
South Africa,Free State,9904,Reddersburg
South Africa,Free State,9906,Undetermined
South Africa,Free State,9908,Edenburg
South Africa,Free State,9913,Trompsburg
South Africa,Free State,9917,Springfontein
South Africa,Free State,9922,Colesberg
South Africa,Free State,9928,Bloemfontein
South Africa,Free State,9932,Petrusburg
South Africa,Free State,9936,Petrusburg
South Africa,Free State,9940,Dewetsdorp
South Africa,Free State,9944,Wepener
South Africa,Free State,9945,Zastron
South Africa,Free State,9950,Zastron
South Africa,Free State,9951,Zastron
South Africa,Free State,9958,Free state
South Africa,Free State,9966,Smithfield
South Africa,Free State,9970,Philippolis
South Africa,Free State,9974,Jagersfontein
South Africa,Free State,9978,Fauresmith
South Africa,Free State,9982,Luckhoff
South Africa,Free State,9986,Koffiefontein
South Africa,Free State,9987,Koffiefontein
South Africa,Free State,9992,Bethulie
South Africa,Free State,9999,Undetermined
